{"type":"FeatureCollection","vintage":"Miami-Dade + Broward, current board members (Orange boundaries unavailable as open GIS)","features":[{"type":"Feature","properties":{"county":"Miami-Dade","county_fips":"12086","district_number":"9","member_name":"Luisa Santos","source":"Miami-Dade County GIS boundaries; member names from Supervisor of Elections roster","source_url":"https://services.arcgis.com/8Pc9XBTAsYuxx9Ny/arcgis/rest/services/SchoolBoardDistrict_gdb/FeatureServer/0"},"geometry":{"type":"Polygon","coordinates":[[[-80.42589,25.52167],[-80.38158,25.56627],[-80.36622,25.58272],[-80.36461,25.58601],[-80.35876,25.59184],[-80.35664,25.59614],[-80.35535,25.5961],[-80.34718,25.61393],[-80.37831,25.61261],[-80.37883,25.62181],[-80.37995,25.62661],[-80.38123,25.6286],[-80.38413,25.63086],[-80.38524,25.63334],[-80.38534,25.64184],[-80.35035,25.64344],[-80.35012,25.63609],[-80.33763,25.63634],[-80.31873,25.6768],[-80.31391,25.68372],[-80.30484,25.69176],[-80.28576,25.68983],[-80.28486,25.68968],[-80.28465,25.68863],[-80.28345,25.64531],[-80.29064,25.64507],[-80.29059,25.64357],[-80.2892,25.64275],[-80.29195,25.63867],[-80.2964,25.63864],[-80.29698,25.63745],[-80.30131,25.63737],[-80.3012,25.63423],[-80.29305,25.63393],[-80.29289,25.63021],[-80.28299,25.63034],[-80.28319,25.62253],[-80.21934,25.61],[-80.21178,25.64232],[-80.21098,25.64212],[-80.20598,25.65719],[-80.10015,25.65732],[-80.10374,25.64886],[-80.10778,25.60664],[-80.10566,25.59986],[-80.10477,25.59462],[-80.10452,25.58799],[-80.10528,25.5812],[-80.10355,25.57075],[-80.10401,25.56188],[-80.10603,25.55362],[-80.11168,25.54031],[-80.11558,25.52667],[-80.11516,25.52288],[-80.10551,25.51408],[-80.10082,25.50757],[-80.09694,25.49962],[-80.09507,25.4934],[-80.09402,25.4857],[-80.09415,25.47926],[-80.09553,25.47104],[-80.09839,25.4631],[-80.10066,25.45882],[-80.10542,25.45212],[-80.11144,25.44606],[-80.1171,25.44183],[-80.12438,25.43777],[-80.13162,25.4349],[-80.13911,25.43311],[-80.14082,25.42782],[-80.14813,25.41346],[-80.14978,25.40288],[-80.15292,25.39467],[-80.15811,25.38574],[-80.16242,25.37995],[-80.17657,25.36688],[-80.18388,25.34819],[-80.25023,25.33938],[-80.25159,25.34234],[-80.25371,25.34462],[-80.25648,25.3507],[-80.26238,25.354],[-80.26548,25.35431],[-80.37213,25.31022],[-80.37199,25.30594],[-80.37903,25.3059],[-80.37915,25.28787],[-80.39509,25.27295],[-80.39494,25.25355],[-80.41096,25.25348],[-80.41865,25.24476],[-80.41888,25.23632],[-80.42688,25.23642],[-80.42931,25.23567],[-80.43235,25.23673],[-80.43348,25.23643],[-80.43651,25.25044],[-80.43721,25.2504],[-80.44183,25.27041],[-80.44146,25.27023],[-80.44148,25.27095],[-80.46371,25.37436],[-80.46392,25.3752],[-80.4647,25.37537],[-80.46335,25.37543],[-80.47421,25.42517],[-80.47416,25.43322],[-80.49131,25.43317],[-80.4913,25.44051],[-80.49332,25.44049],[-80.49343,25.44779],[-80.50156,25.4477],[-80.50157,25.46238],[-80.50563,25.46235],[-80.50567,25.46592],[-80.50159,25.46594],[-80.50163,25.46963],[-80.49564,25.46971],[-80.49561,25.47157],[-80.49365,25.47159],[-80.49375,25.48439],[-80.50585,25.48426],[-80.50587,25.4861],[-80.50788,25.48608],[-80.50793,25.49156],[-80.50391,25.4916],[-80.50398,25.49889],[-80.49793,25.49895],[-80.49784,25.49166],[-80.49702,25.49166],[-80.49703,25.49057],[-80.49383,25.49057],[-80.49382,25.48899],[-80.48558,25.48902],[-80.48559,25.49175],[-80.48355,25.49173],[-80.48358,25.48994],[-80.4816,25.48991],[-80.48058,25.48992],[-80.48027,25.49176],[-80.47956,25.49176],[-80.47955,25.48993],[-80.47757,25.48993],[-80.47756,25.48902],[-80.47606,25.48903],[-80.47605,25.48812],[-80.47335,25.48815],[-80.47334,25.4836],[-80.47226,25.48361],[-80.47225,25.48269],[-80.4712,25.4827],[-80.4712,25.48087],[-80.46516,25.48186],[-80.46514,25.48458],[-80.46101,25.48459],[-80.43905,25.5067],[-80.4406,25.50668],[-80.42589,25.52167]]]}},{"type":"Feature","properties":{"county":"Miami-Dade","county_fips":"12086","district_number":"6","member_name":"Maria Teresa \"Mari Tere\" Rojas","source":"Miami-Dade County GIS boundaries; member names from Supervisor of Elections roster","source_url":"https://services.arcgis.com/8Pc9XBTAsYuxx9Ny/arcgis/rest/services/SchoolBoardDistrict_gdb/FeatureServer/0"},"geometry":{"type":"Polygon","coordinates":[[[-80.22274,25.78266],[-80.22297,25.78552],[-80.21974,25.78451],[-80.21201,25.78164],[-80.20333,25.77637],[-80.20084,25.77369],[-80.19932,25.77048],[-80.20024,25.76792],[-80.19966,25.76126],[-80.22179,25.74583],[-80.25077,25.73518],[-80.25587,25.7313],[-80.25568,25.72756],[-80.25867,25.72746],[-80.25851,25.72499],[-80.26162,25.72484],[-80.26101,25.70905],[-80.19118,25.70989],[-80.18567,25.72929],[-80.17896,25.74677],[-80.17668,25.74668],[-80.1741,25.74535],[-80.17385,25.74598],[-80.1759,25.74772],[-80.17545,25.74817],[-80.17292,25.74507],[-80.17051,25.74371],[-80.16341,25.73724],[-80.15767,25.73969],[-80.1577,25.7375],[-80.15935,25.73431],[-80.15517,25.73033],[-80.13749,25.73887],[-80.13509,25.74104],[-80.1334,25.74474],[-80.13254,25.74856],[-80.09179,25.72112],[-80.0939,25.69857],[-80.09558,25.69212],[-80.09887,25.68423],[-80.09773,25.67068],[-80.09881,25.66227],[-80.10015,25.65732],[-80.20598,25.65719],[-80.21098,25.64212],[-80.21178,25.64232],[-80.21934,25.61],[-80.28319,25.62253],[-80.28299,25.63034],[-80.29289,25.63021],[-80.29305,25.63393],[-80.3012,25.63423],[-80.30131,25.63737],[-80.29698,25.63745],[-80.2964,25.63864],[-80.29195,25.63867],[-80.2892,25.64275],[-80.29059,25.64357],[-80.29064,25.64507],[-80.28345,25.64531],[-80.28486,25.68968],[-80.30484,25.69176],[-80.3112,25.68648],[-80.31486,25.6825],[-80.31664,25.68616],[-80.31688,25.68853],[-80.35113,25.6875],[-80.34707,25.69208],[-80.34993,25.69354],[-80.35015,25.70164],[-80.36468,25.70115],[-80.36621,25.7019],[-80.36778,25.73211],[-80.36772,25.74672],[-80.28497,25.74854],[-80.28509,25.75172],[-80.28398,25.7534],[-80.28314,25.75389],[-80.27521,25.75416],[-80.27531,25.75682],[-80.27124,25.75724],[-80.2714,25.76236],[-80.27038,25.7624],[-80.27045,25.76421],[-80.27147,25.76418],[-80.2717,25.77147],[-80.23911,25.77235],[-80.23934,25.77947],[-80.22252,25.77997],[-80.22274,25.78266]]]}},{"type":"Feature","properties":{"county":"Miami-Dade","county_fips":"12086","district_number":"2","member_name":"Dr. Dorothy Bendross-Mindingall","source":"Miami-Dade County GIS boundaries; member names from Supervisor of Elections roster","source_url":"https://services.arcgis.com/8Pc9XBTAsYuxx9Ny/arcgis/rest/services/SchoolBoardDistrict_gdb/FeatureServer/0"},"geometry":{"type":"Polygon","coordinates":[[[-80.16054,25.89994],[-80.16504,25.88525],[-80.16827,25.87759],[-80.1791,25.86398],[-80.17719,25.86403],[-80.17673,25.85543],[-80.17967,25.85375],[-80.17965,25.85305],[-80.18175,25.85165],[-80.18477,25.85153],[-80.18404,25.83196],[-80.18147,25.83172],[-80.18047,25.82698],[-80.18207,25.82696],[-80.18137,25.82236],[-80.18724,25.8222],[-80.18948,25.81017],[-80.18897,25.79235],[-80.18932,25.78201],[-80.19054,25.78196],[-80.19036,25.77716],[-80.19607,25.77698],[-80.19565,25.76879],[-80.19751,25.76881],[-80.19966,25.77081],[-80.20152,25.77458],[-80.20481,25.77744],[-80.20931,25.77954],[-80.21201,25.78164],[-80.22394,25.7862],[-80.2296,25.78753],[-80.23121,25.78877],[-80.23565,25.79028],[-80.23965,25.79266],[-80.23982,25.79428],[-80.24399,25.79631],[-80.24432,25.80938],[-80.25639,25.80901],[-80.25658,25.81072],[-80.25865,25.8106],[-80.2601,25.87068],[-80.25906,25.87071],[-80.25968,25.88944],[-80.24334,25.89016],[-80.24363,25.89728],[-80.21128,25.89828],[-80.21111,25.89465],[-80.19545,25.89536],[-80.19531,25.89191],[-80.19465,25.89126],[-80.19459,25.88991],[-80.19051,25.89009],[-80.19057,25.8919],[-80.18856,25.892],[-80.18864,25.89384],[-80.18356,25.89405],[-80.18073,25.89785],[-80.16348,25.91481],[-80.15682,25.91508],[-80.15739,25.91049],[-80.16054,25.89994]]]}},{"type":"Feature","properties":{"county":"Miami-Dade","county_fips":"12086","district_number":"5","member_name":"Danny Espino","source":"Miami-Dade County GIS boundaries; member names from Supervisor of Elections roster","source_url":"https://services.arcgis.com/8Pc9XBTAsYuxx9Ny/arcgis/rest/services/SchoolBoardDistrict_gdb/FeatureServer/0"},"geometry":{"type":"Polygon","coordinates":[[[-80.49952,25.65961],[-80.51283,25.65952],[-80.51285,25.66009],[-80.67398,25.66022],[-80.67426,25.66655],[-80.70245,25.6665],[-80.70251,25.66812],[-80.70375,25.66805],[-80.70611,25.6665],[-80.87316,25.66624],[-80.87361,25.90836],[-80.87294,25.97949],[-80.68004,25.97881],[-80.68002,25.95691],[-80.35139,25.95702],[-80.35101,25.94893],[-80.35056,25.9493],[-80.35099,25.94852],[-80.35007,25.92797],[-80.37549,25.92785],[-80.3855,25.90087],[-80.30415,25.84001],[-80.30211,25.84083],[-80.29004,25.84122],[-80.28996,25.84064],[-80.28803,25.84071],[-80.28791,25.83704],[-80.2676,25.8377],[-80.26588,25.83793],[-80.26619,25.84529],[-80.25962,25.84554],[-80.25865,25.81065],[-80.25658,25.81077],[-80.25639,25.80905],[-80.24432,25.80943],[-80.24399,25.79636],[-80.23982,25.79433],[-80.23965,25.7927],[-80.23565,25.79033],[-80.23121,25.78882],[-80.2296,25.78758],[-80.22297,25.78557],[-80.22252,25.78002],[-80.23934,25.77952],[-80.23911,25.7724],[-80.32064,25.76994],[-80.3209,25.76245],[-80.38442,25.76106],[-80.48137,25.76092],[-80.47836,25.68868],[-80.47873,25.68345],[-80.48125,25.67418],[-80.48088,25.66105],[-80.49952,25.65961]]]}},{"type":"Feature","properties":{"county":"Miami-Dade","county_fips":"12086","district_number":"8","member_name":"Monica Colucci","source":"Miami-Dade County GIS boundaries; member names from Supervisor of Elections roster","source_url":"https://services.arcgis.com/8Pc9XBTAsYuxx9Ny/arcgis/rest/services/SchoolBoardDistrict_gdb/FeatureServer/0"},"geometry":{"type":"Polygon","coordinates":[[[-80.27308,25.75718],[-80.27531,25.75682],[-80.27521,25.75416],[-80.28314,25.75389],[-80.28398,25.7534],[-80.28509,25.75172],[-80.28497,25.74854],[-80.36772,25.74672],[-80.36778,25.73211],[-80.36623,25.70216],[-80.36468,25.70115],[-80.41451,25.69996],[-80.41568,25.69034],[-80.41983,25.69249],[-80.42445,25.69142],[-80.42413,25.68919],[-80.42487,25.68504],[-80.43308,25.68486],[-80.43258,25.67026],[-80.44388,25.6699],[-80.44337,25.66767],[-80.44122,25.6654],[-80.44015,25.66291],[-80.44559,25.6625],[-80.44865,25.66401],[-80.45414,25.66448],[-80.45715,25.66391],[-80.45703,25.6621],[-80.48088,25.661],[-80.48125,25.67414],[-80.47873,25.6834],[-80.47836,25.68863],[-80.48137,25.76087],[-80.38442,25.76101],[-80.32257,25.7623],[-80.32088,25.76241],[-80.32064,25.76989],[-80.2717,25.77147],[-80.27147,25.76418],[-80.27045,25.76421],[-80.27038,25.7624],[-80.2714,25.76236],[-80.27124,25.75724],[-80.27308,25.75718]]]}},{"type":"Feature","properties":{"county":"Miami-Dade","county_fips":"12086","district_number":"4","member_name":"Roberto J. Alonso","source":"Miami-Dade County GIS boundaries; member names from Supervisor of Elections roster","source_url":"https://services.arcgis.com/8Pc9XBTAsYuxx9Ny/arcgis/rest/services/SchoolBoardDistrict_gdb/FeatureServer/0"},"geometry":{"type":"Polygon","coordinates":[[[-80.30211,25.84078],[-80.30415,25.83996],[-80.3855,25.90082],[-80.37549,25.9278],[-80.35007,25.92793],[-80.35099,25.94847],[-80.35056,25.94925],[-80.35101,25.94888],[-80.35139,25.95697],[-80.31062,25.95717],[-80.31017,25.95381],[-80.30733,25.94839],[-80.30684,25.94073],[-80.30728,25.93712],[-80.30967,25.93153],[-80.30963,25.92785],[-80.29335,25.92814],[-80.29179,25.89459],[-80.28989,25.8958],[-80.28786,25.89588],[-80.28728,25.88133],[-80.25944,25.88207],[-80.25906,25.87071],[-80.2601,25.87068],[-80.25962,25.84549],[-80.26619,25.84524],[-80.26588,25.83788],[-80.28791,25.83699],[-80.28803,25.84066],[-80.28996,25.84059],[-80.29004,25.84118],[-80.30211,25.84078]]]}},{"type":"Feature","properties":{"county":"Miami-Dade","county_fips":"12086","district_number":"3","member_name":"Joseph S. Geller","source":"Miami-Dade County GIS boundaries; member names from Supervisor of Elections roster","source_url":"https://services.arcgis.com/8Pc9XBTAsYuxx9Ny/arcgis/rest/services/SchoolBoardDistrict_gdb/FeatureServer/0"},"geometry":{"type":"Polygon","coordinates":[[[-80.18433,25.84099],[-80.18477,25.85153],[-80.18175,25.85165],[-80.17965,25.85305],[-80.17967,25.85375],[-80.17673,25.85543],[-80.17719,25.86403],[-80.1791,25.86398],[-80.16874,25.87674],[-80.16555,25.88384],[-80.15739,25.91049],[-80.15682,25.91508],[-80.15773,25.91504],[-80.15343,25.92876],[-80.1527,25.92919],[-80.15333,25.92909],[-80.15086,25.93773],[-80.15626,25.93734],[-80.15735,25.95943],[-80.16117,25.95934],[-80.16204,25.96307],[-80.16773,25.96446],[-80.17429,25.96491],[-80.17434,25.96689],[-80.17363,25.96718],[-80.17437,25.96773],[-80.17454,25.97325],[-80.17865,25.97348],[-80.13399,25.97488],[-80.13387,25.97412],[-80.13316,25.97413],[-80.12388,25.97449],[-80.12331,25.97511],[-80.0629,25.97682],[-80.06336,25.97441],[-80.06285,25.96803],[-80.06314,25.95357],[-80.06422,25.94082],[-80.06317,25.93424],[-80.06304,25.92758],[-80.064,25.92041],[-80.06544,25.91524],[-80.06404,25.90801],[-80.06379,25.90159],[-80.06561,25.8902],[-80.06573,25.88125],[-80.06296,25.8547],[-80.06286,25.84828],[-80.06427,25.8393],[-80.065,25.82207],[-80.06697,25.8024],[-80.07157,25.78553],[-80.07263,25.77929],[-80.0698,25.76855],[-80.06934,25.75851],[-80.07062,25.75043],[-80.07316,25.743],[-80.07715,25.73569],[-80.0816,25.72994],[-80.08642,25.7252],[-80.09179,25.72112],[-80.13254,25.74856],[-80.1334,25.74474],[-80.13509,25.74104],[-80.13749,25.73887],[-80.15517,25.73033],[-80.15935,25.73431],[-80.1577,25.7375],[-80.15767,25.73969],[-80.16341,25.73724],[-80.17051,25.74371],[-80.17292,25.74507],[-80.17545,25.74817],[-80.1759,25.74772],[-80.17385,25.74598],[-80.1741,25.74535],[-80.17668,25.74668],[-80.17903,25.7467],[-80.18567,25.72929],[-80.19118,25.70989],[-80.26101,25.70905],[-80.26162,25.72484],[-80.25851,25.72499],[-80.25867,25.72746],[-80.25568,25.72756],[-80.25587,25.7313],[-80.25077,25.73518],[-80.21984,25.74695],[-80.19966,25.76126],[-80.20025,25.76748],[-80.19945,25.77023],[-80.19767,25.76887],[-80.19565,25.76879],[-80.19607,25.77698],[-80.19036,25.77716],[-80.19054,25.78196],[-80.18932,25.78201],[-80.18908,25.78611],[-80.18951,25.80859],[-80.18907,25.81418],[-80.18724,25.8222],[-80.18137,25.82236],[-80.18207,25.82696],[-80.18047,25.82698],[-80.18147,25.83172],[-80.18404,25.83196],[-80.18433,25.84099]]]}},{"type":"Feature","properties":{"county":"Miami-Dade","county_fips":"12086","district_number":"7","member_name":"Mary Blanco","source":"Miami-Dade County GIS boundaries; member names from Supervisor of Elections roster","source_url":"https://services.arcgis.com/8Pc9XBTAsYuxx9Ny/arcgis/rest/services/SchoolBoardDistrict_gdb/FeatureServer/0"},"geometry":{"type":"Polygon","coordinates":[[[-80.35014,25.70144],[-80.34993,25.69354],[-80.34707,25.69208],[-80.35113,25.6875],[-80.31688,25.68853],[-80.31664,25.68616],[-80.31486,25.6825],[-80.31927,25.67578],[-80.33763,25.63634],[-80.35012,25.63609],[-80.35035,25.64344],[-80.38534,25.64184],[-80.38524,25.63334],[-80.38413,25.63086],[-80.38123,25.6286],[-80.37995,25.62661],[-80.37883,25.62181],[-80.37831,25.61261],[-80.34718,25.61393],[-80.35535,25.5961],[-80.35664,25.59614],[-80.35876,25.59184],[-80.36461,25.58601],[-80.36572,25.58332],[-80.38158,25.56627],[-80.43083,25.51693],[-80.4406,25.50668],[-80.43905,25.5067],[-80.46101,25.48459],[-80.46514,25.48458],[-80.46516,25.48186],[-80.4712,25.48087],[-80.4712,25.4827],[-80.47225,25.48269],[-80.47226,25.48361],[-80.47334,25.4836],[-80.47335,25.48815],[-80.47605,25.48812],[-80.47606,25.48903],[-80.47756,25.48902],[-80.47757,25.48993],[-80.47955,25.48993],[-80.47956,25.49176],[-80.48027,25.49176],[-80.48058,25.48992],[-80.48358,25.48994],[-80.48355,25.49173],[-80.48559,25.49175],[-80.48558,25.48902],[-80.49382,25.48899],[-80.49383,25.49057],[-80.49703,25.49057],[-80.49702,25.49166],[-80.49784,25.49166],[-80.49793,25.49895],[-80.50398,25.49889],[-80.50391,25.4916],[-80.50793,25.49156],[-80.50788,25.48608],[-80.50587,25.4861],[-80.50585,25.48426],[-80.49375,25.48439],[-80.49365,25.47159],[-80.49561,25.47157],[-80.49564,25.46971],[-80.50163,25.46963],[-80.50159,25.46594],[-80.50567,25.46592],[-80.50563,25.46235],[-80.50157,25.46238],[-80.50156,25.4477],[-80.49343,25.44779],[-80.49332,25.44049],[-80.4913,25.44051],[-80.49131,25.43317],[-80.47416,25.43322],[-80.47421,25.42517],[-80.46335,25.37543],[-80.4647,25.37537],[-80.46392,25.3752],[-80.46371,25.37436],[-80.44148,25.27095],[-80.44146,25.27023],[-80.44183,25.27041],[-80.43721,25.2504],[-80.43651,25.25044],[-80.43348,25.23643],[-80.43647,25.2359],[-80.43549,25.23731],[-80.43565,25.2382],[-80.43474,25.23838],[-80.43524,25.24064],[-80.43695,25.24066],[-80.44001,25.23944],[-80.439,25.24123],[-80.43931,25.24252],[-80.44144,25.24395],[-80.44421,25.24421],[-80.4456,25.24274],[-80.44552,25.24117],[-80.44446,25.23991],[-80.44898,25.24076],[-80.45341,25.23837],[-80.45523,25.23913],[-80.45654,25.23883],[-80.45745,25.23685],[-80.45634,25.2352],[-80.4608,25.23683],[-80.46383,25.23591],[-80.46468,25.2349],[-80.46715,25.23474],[-80.46821,25.23361],[-80.46864,25.23006],[-80.47086,25.23042],[-80.47267,25.22856],[-80.47449,25.23063],[-80.47588,25.23081],[-80.47719,25.22959],[-80.48041,25.22824],[-80.48248,25.22489],[-80.485,25.22553],[-80.48732,25.22874],[-80.48917,25.22883],[-80.4907,25.22729],[-80.49418,25.22713],[-80.49604,25.22401],[-80.49604,25.22274],[-80.49445,25.22132],[-80.49498,25.2202],[-80.495,25.2163],[-80.49182,25.21348],[-80.49023,25.21302],[-80.4892,25.21344],[-80.48875,25.2125],[-80.48704,25.21232],[-80.48819,25.20958],[-80.48722,25.20714],[-80.48817,25.20672],[-80.49053,25.20783],[-80.49219,25.20751],[-80.49214,25.20598],[-80.49277,25.20559],[-80.49386,25.20607],[-80.49356,25.20706],[-80.49426,25.20761],[-80.49492,25.20646],[-80.4957,25.20664],[-80.49585,25.20855],[-80.49782,25.20893],[-80.49888,25.21111],[-80.50061,25.2112],[-80.50134,25.20962],[-80.50054,25.2084],[-80.4987,25.20814],[-80.49557,25.20533],[-80.49607,25.20286],[-80.49534,25.19951],[-80.49799,25.19994],[-80.4993,25.20081],[-80.50049,25.20225],[-80.50026,25.20482],[-80.50311,25.20315],[-80.50379,25.20565],[-80.50488,25.20659],[-80.50616,25.20705],[-80.50814,25.20651],[-80.50689,25.20856],[-80.50719,25.21013],[-80.50953,25.21228],[-80.51064,25.21607],[-80.51402,25.21795],[-80.51541,25.2174],[-80.51455,25.21857],[-80.51465,25.21956],[-80.51918,25.22238],[-80.5243,25.22117],[-80.52483,25.21959],[-80.52859,25.21695],[-80.52907,25.21351],[-80.53091,25.21485],[-80.53263,25.21391],[-80.5383,25.2143],[-80.53964,25.21352],[-80.54062,25.21146],[-80.54068,25.20866],[-80.53806,25.20581],[-80.53865,25.20411],[-80.53571,25.20104],[-80.53584,25.19893],[-80.53657,25.20073],[-80.53785,25.20144],[-80.54116,25.20571],[-80.5435,25.2062],[-80.54565,25.20499],[-80.54794,25.20619],[-80.5496,25.20864],[-80.54821,25.21211],[-80.5492,25.21405],[-80.55383,25.21399],[-80.55535,25.21254],[-80.55797,25.21165],[-80.56195,25.2122],[-80.56226,25.21051],[-80.55931,25.20445],[-80.55855,25.19931],[-80.56393,25.19703],[-80.56553,25.19512],[-80.56539,25.19266],[-80.5688,25.19317],[-80.57275,25.19716],[-80.57497,25.19799],[-80.57721,25.20076],[-80.57724,25.20223],[-80.57671,25.20363],[-80.576,25.20312],[-80.57462,25.19868],[-80.57326,25.19819],[-80.57127,25.19854],[-80.56957,25.20071],[-80.56902,25.20418],[-80.56509,25.20415],[-80.56382,25.20509],[-80.56355,25.20718],[-80.56549,25.20959],[-80.56841,25.21156],[-80.57073,25.2103],[-80.57229,25.21079],[-80.57456,25.21008],[-80.57711,25.21209],[-80.57986,25.21173],[-80.58238,25.21056],[-80.58298,25.20962],[-80.58246,25.20813],[-80.58414,25.20746],[-80.58329,25.20524],[-80.58384,25.20057],[-80.58763,25.2007],[-80.59159,25.19925],[-80.59418,25.19517],[-80.59402,25.19148],[-80.59462,25.19038],[-80.60641,25.18639],[-80.61023,25.18031],[-80.61445,25.17579],[-80.61902,25.17737],[-80.61924,25.17802],[-80.61781,25.18047],[-80.61962,25.18201],[-80.62185,25.18032],[-80.62519,25.18256],[-80.6227,25.1827],[-80.62146,25.18361],[-80.61297,25.18203],[-80.60959,25.18286],[-80.60908,25.18425],[-80.60974,25.18593],[-80.60747,25.18783],[-80.60409,25.18889],[-80.60326,25.19059],[-80.60412,25.19315],[-80.60573,25.19481],[-80.60573,25.19673],[-80.60394,25.20094],[-80.60492,25.20274],[-80.60853,25.20274],[-80.60994,25.20027],[-80.61491,25.20073],[-80.61828,25.19896],[-80.6196,25.19758],[-80.62126,25.19921],[-80.62254,25.19919],[-80.62401,25.19779],[-80.62421,25.19547],[-80.62532,25.19501],[-80.62824,25.19749],[-80.62945,25.19772],[-80.63076,25.19699],[-80.63112,25.19534],[-80.63369,25.19417],[-80.63424,25.19238],[-80.63651,25.19258],[-80.63886,25.19089],[-80.6442,25.1907],[-80.64712,25.18953],[-80.6475,25.19144],[-80.64828,25.19217],[-80.65164,25.19249],[-80.65275,25.18962],[-80.65433,25.18822],[-80.65428,25.1848],[-80.65938,25.18478],[-80.66086,25.18198],[-80.66399,25.1795],[-80.66426,25.17742],[-80.66245,25.17498],[-80.6592,25.17476],[-80.65796,25.17751],[-80.65579,25.17586],[-80.65166,25.17535],[-80.64306,25.17811],[-80.63807,25.17857],[-80.63553,25.17841],[-80.63364,25.17634],[-80.63548,25.17595],[-80.64029,25.17666],[-80.64508,25.17471],[-80.64752,25.17151],[-80.6499,25.16736],[-80.65178,25.16213],[-80.65095,25.15745],[-80.65533,25.15576],[-80.65642,25.1543],[-80.65594,25.14939],[-80.65246,25.14732],[-80.65281,25.14609],[-80.65667,25.14494],[-80.6574,25.14526],[-80.65712,25.14629],[-80.65798,25.14661],[-80.65863,25.14524],[-80.65833,25.14342],[-80.65916,25.14264],[-80.66405,25.14145],[-80.66907,25.14214],[-80.67242,25.13897],[-80.6737,25.13849],[-80.67451,25.13883],[-80.67511,25.14028],[-80.67459,25.14225],[-80.67093,25.14415],[-80.66929,25.14659],[-80.66587,25.14966],[-80.66564,25.15088],[-80.66421,25.15138],[-80.66191,25.15402],[-80.65662,25.15629],[-80.65307,25.16288],[-80.65357,25.16466],[-80.65632,25.16694],[-80.65781,25.16914],[-80.66192,25.16739],[-80.66451,25.16737],[-80.6662,25.16668],[-80.66983,25.16705],[-80.66799,25.17083],[-80.6717,25.17459],[-80.67326,25.1739],[-80.67341,25.17113],[-80.67407,25.17003],[-80.67402,25.16886],[-80.67233,25.1675],[-80.67522,25.16679],[-80.67807,25.16395],[-80.67966,25.16404],[-80.68044,25.16479],[-80.68001,25.16656],[-80.67812,25.16897],[-80.67752,25.17287],[-80.67845,25.17461],[-80.68024,25.17457],[-80.68811,25.16888],[-80.69317,25.16729],[-80.69614,25.16385],[-80.69786,25.16295],[-80.69861,25.16185],[-80.69861,25.15905],[-80.6976,25.15444],[-80.70352,25.15274],[-80.70538,25.14903],[-80.70468,25.14513],[-80.70321,25.14384],[-80.70324,25.14146],[-80.70407,25.14042],[-80.70698,25.14005],[-80.708,25.14132],[-80.70876,25.14684],[-80.71022,25.14893],[-80.7109,25.15139],[-80.71186,25.15202],[-80.71297,25.15155],[-80.7139,25.15191],[-80.71733,25.1554],[-80.72162,25.15487],[-80.72618,25.15257],[-80.72721,25.15289],[-80.72593,25.15667],[-80.72301,25.15934],[-80.72309,25.16156],[-80.72553,25.16578],[-80.73171,25.16745],[-80.72926,25.16362],[-80.72991,25.15977],[-80.7342,25.16098],[-80.73569,25.16059],[-80.73727,25.15907],[-80.73884,25.16162],[-80.74108,25.16238],[-80.74244,25.16403],[-80.74592,25.1654],[-80.74728,25.16482],[-80.7472,25.15872],[-80.74453,25.15595],[-80.74374,25.15391],[-80.73943,25.15109],[-80.73847,25.15082],[-80.73621,25.15213],[-80.73099,25.15293],[-80.72858,25.15028],[-80.72638,25.14983],[-80.72237,25.14752],[-80.72125,25.14622],[-80.72156,25.14551],[-80.72773,25.14491],[-80.73063,25.14307],[-80.73492,25.14366],[-80.74057,25.14249],[-80.74294,25.14266],[-80.75146,25.1514],[-80.75271,25.15191],[-80.75456,25.15136],[-80.75632,25.15272],[-80.75496,25.15652],[-80.75539,25.15917],[-80.76103,25.16159],[-80.76596,25.16229],[-80.77111,25.16098],[-80.77219,25.15981],[-80.77237,25.15651],[-80.77053,25.15394],[-80.77016,25.15153],[-80.7688,25.15009],[-80.769,25.14683],[-80.77148,25.14045],[-80.7771,25.13743],[-80.77802,25.13771],[-80.77841,25.13865],[-80.77354,25.14431],[-80.77258,25.1483],[-80.77275,25.1506],[-80.77806,25.16255],[-80.78023,25.16473],[-80.78222,25.16528],[-80.78724,25.16444],[-80.79243,25.16446],[-80.79581,25.16212],[-80.7973,25.15981],[-80.79841,25.15637],[-80.79796,25.14673],[-80.79989,25.14334],[-80.80053,25.14299],[-80.80106,25.14357],[-80.8007,25.14866],[-80.80257,25.15288],[-80.80113,25.15662],[-80.80014,25.1632],[-80.79777,25.1666],[-80.79391,25.17625],[-80.79529,25.17947],[-80.79786,25.18123],[-80.80293,25.18201],[-80.80555,25.18355],[-80.80819,25.18422],[-80.80837,25.18156],[-80.81147,25.17991],[-80.81205,25.1806],[-80.80938,25.18337],[-80.80958,25.18388],[-80.8123,25.1833],[-80.81324,25.18252],[-80.81442,25.18275],[-80.81334,25.18005],[-80.81304,25.17608],[-80.81044,25.17459],[-80.80926,25.1722],[-80.80956,25.16906],[-80.8104,25.16786],[-80.81417,25.16543],[-80.82136,25.16287],[-80.82574,25.16056],[-80.82717,25.16092],[-80.82875,25.16613],[-80.83003,25.16812],[-80.83421,25.17269],[-80.83822,25.1748],[-80.8418,25.17627],[-80.8453,25.17636],[-80.84641,25.17708],[-80.85168,25.17733],[-80.85817,25.17662],[-80.85799,25.24301],[-80.862,25.24291],[-80.8622,25.3642],[-80.8732,25.364],[-80.87316,25.66619],[-80.70611,25.66645],[-80.70375,25.668],[-80.70251,25.66807],[-80.70245,25.66645],[-80.67426,25.6665],[-80.67398,25.66017],[-80.51285,25.66005],[-80.51283,25.65947],[-80.50484,25.6595],[-80.45703,25.6621],[-80.45715,25.66391],[-80.45414,25.66448],[-80.44865,25.66401],[-80.44559,25.6625],[-80.44165,25.66254],[-80.44015,25.66291],[-80.44122,25.6654],[-80.44337,25.66767],[-80.44388,25.6699],[-80.43258,25.67026],[-80.43308,25.68486],[-80.42487,25.68504],[-80.42413,25.68919],[-80.42445,25.69142],[-80.41983,25.69249],[-80.41568,25.69034],[-80.41451,25.69996],[-80.35014,25.70144]]]}},{"type":"Feature","properties":{"county":"Miami-Dade","county_fips":"12086","district_number":"1","member_name":"Steve Gallon III","source":"Miami-Dade County GIS boundaries; member names from Supervisor of Elections roster","source_url":"https://services.arcgis.com/8Pc9XBTAsYuxx9Ny/arcgis/rest/services/SchoolBoardDistrict_gdb/FeatureServer/0"},"geometry":{"type":"Polygon","coordinates":[[[-80.19545,25.89536],[-80.21111,25.89465],[-80.21128,25.89828],[-80.24363,25.89728],[-80.24334,25.89016],[-80.25966,25.88946],[-80.25942,25.88207],[-80.28728,25.88133],[-80.28786,25.89588],[-80.28989,25.8958],[-80.29179,25.89459],[-80.29335,25.92814],[-80.30963,25.92785],[-80.30967,25.93153],[-80.30728,25.93712],[-80.30684,25.94073],[-80.30733,25.94839],[-80.31017,25.95381],[-80.31062,25.95717],[-80.29498,25.95678],[-80.29519,25.97058],[-80.17462,25.9734],[-80.17437,25.96773],[-80.17363,25.96718],[-80.17434,25.96689],[-80.17429,25.96491],[-80.16773,25.96446],[-80.16204,25.96307],[-80.16117,25.95934],[-80.15735,25.95943],[-80.15626,25.93734],[-80.15086,25.93773],[-80.15333,25.92909],[-80.1527,25.92919],[-80.15343,25.92876],[-80.15773,25.91504],[-80.16348,25.91481],[-80.18073,25.89785],[-80.18356,25.89405],[-80.18864,25.89384],[-80.18856,25.892],[-80.19057,25.8919],[-80.19051,25.89009],[-80.19459,25.88991],[-80.19465,25.89126],[-80.19531,25.89191],[-80.19545,25.89536]]]}},{"type":"Feature","properties":{"county":"Broward","county_fips":"12011","district_number":"6","member_name":"Adam Cervera","source":"Broward County GIS / Supervisor of Elections (School Board Districts 2022)","source_url":"https://bcgishub.broward.org/hbm/rest/services/SOE/SchoolBoardMunicpalDistricts2022/FeatureServer/17"},"geometry":{"type":"Polygon","coordinates":[[[-80.2844,26.1937],[-80.2976,26.1937],[-80.2977,26.1893],[-80.367,26.128],[-80.3768,26.1298],[-80.4347,26.1437],[-80.4417,26.1461],[-80.446,26.1467],[-80.4496,26.142],[-80.4498,26.1408],[-80.4428,26.1095],[-80.442,26.0619],[-80.4225,26.0618],[-80.3159,26.0638],[-80.3159,26.0633],[-80.3133,26.0633],[-80.3126,26.0296],[-80.2806,26.0299],[-80.2487,26.0312],[-80.2485,26.0331],[-80.2374,26.0381],[-80.2329,26.0423],[-80.2328,26.0416],[-80.2309,26.0417],[-80.2309,26.0451],[-80.2169,26.0449],[-80.2169,26.0465],[-80.2148,26.0465],[-80.2165,26.0917],[-80.2159,26.0915],[-80.2168,26.0937],[-80.2181,26.1045],[-80.2186,26.1164],[-80.2181,26.1208],[-80.2855,26.1207],[-80.2855,26.1246],[-80.2871,26.1283],[-80.2875,26.1349],[-80.2872,26.1476],[-80.2864,26.1489],[-80.2834,26.1506],[-80.2828,26.152],[-80.2828,26.1595],[-80.2848,26.1688],[-80.2832,26.1741],[-80.284,26.1785],[-80.2844,26.1937]]]}},{"type":"Feature","properties":{"county":"Broward","county_fips":"12011","district_number":"1","member_name":"Maura McCarthy Bulman","source":"Broward County GIS / Supervisor of Elections (School Board Districts 2022)","source_url":"https://bcgishub.broward.org/hbm/rest/services/SOE/SchoolBoardMunicpalDistricts2022/FeatureServer/17"},"geometry":{"type":"Polygon","coordinates":[[[-80.1084,26.0548],[-80.1121,26.0549],[-80.1123,26.0533],[-80.1134,26.0529],[-80.1274,26.0528],[-80.1275,26.0604],[-80.133,26.0597],[-80.1439,26.0596],[-80.1435,26.0615],[-80.1422,26.0633],[-80.1518,26.0634],[-80.1642,26.0629],[-80.1626,26.0565],[-80.1624,26.0483],[-80.2084,26.0467],[-80.2085,26.0497],[-80.2074,26.0503],[-80.2075,26.054],[-80.2151,26.0538],[-80.2148,26.0465],[-80.2169,26.0465],[-80.2169,26.0449],[-80.2309,26.0451],[-80.2309,26.0417],[-80.2328,26.0416],[-80.2329,26.0423],[-80.2374,26.0381],[-80.2485,26.0331],[-80.2487,26.0312],[-80.2646,26.0307],[-80.2632,25.9943],[-80.2242,25.9952],[-80.2278,25.9902],[-80.2294,25.986],[-80.23,25.9819],[-80.2296,25.9722],[-80.134,25.9749],[-80.1339,25.9741],[-80.1332,25.9741],[-80.1153,25.9753],[-80.1148,25.9844],[-80.1153,25.9864],[-80.114,26.0016],[-80.1121,26.0121],[-80.1104,26.0376],[-80.1084,26.0548]]]}},{"type":"Feature","properties":{"county":"Broward","county_fips":"12011","district_number":"7","member_name":"Nora Rupert","source":"Broward County GIS / Supervisor of Elections (School Board Districts 2022)","source_url":"https://bcgishub.broward.org/hbm/rest/services/SOE/SchoolBoardMunicpalDistricts2022/FeatureServer/17"},"geometry":{"type":"Polygon","coordinates":[[[-80.0742,26.2811],[-80.0713,26.321],[-80.0877,26.3206],[-80.0888,26.3221],[-80.0893,26.3246],[-80.0921,26.3264],[-80.0947,26.325],[-80.0964,26.3224],[-80.0971,26.3223],[-80.099,26.3232],[-80.0984,26.3266],[-80.1002,26.3278],[-80.2031,26.3278],[-80.2016,26.2544],[-80.2072,26.2547],[-80.2147,26.2531],[-80.2238,26.2533],[-80.2342,26.257],[-80.2337,26.2283],[-80.221,26.2282],[-80.2206,26.2219],[-80.2126,26.2219],[-80.2125,26.2201],[-80.2044,26.2201],[-80.2041,26.215],[-80.2029,26.215],[-80.2029,26.2129],[-80.1994,26.213],[-80.1994,26.215],[-80.1956,26.215],[-80.1956,26.209],[-80.1882,26.2092],[-80.188,26.2097],[-80.1768,26.2092],[-80.1738,26.2099],[-80.1559,26.2107],[-80.1566,26.2313],[-80.0846,26.2319],[-80.0803,26.2523],[-80.0785,26.2538],[-80.0748,26.2744],[-80.0742,26.2811]]]}},{"type":"Feature","properties":{"county":"Broward","county_fips":"12011","district_number":"2","member_name":"Rebecca Thompson","source":"Broward County GIS / Supervisor of Elections (School Board Districts 2022)","source_url":"https://bcgishub.broward.org/hbm/rest/services/SOE/SchoolBoardMunicpalDistricts2022/FeatureServer/17"},"geometry":{"type":"Polygon","coordinates":[[[-80.2646,26.0307],[-80.2806,26.0299],[-80.3126,26.0296],[-80.3133,26.0633],[-80.3159,26.0633],[-80.3159,26.0638],[-80.4225,26.0618],[-80.442,26.0619],[-80.442,26.0442],[-80.4394,25.9569],[-80.295,25.9568],[-80.2952,25.9706],[-80.2296,25.9722],[-80.23,25.9819],[-80.2294,25.986],[-80.2278,25.9902],[-80.2242,25.9952],[-80.2632,25.9943],[-80.2646,26.0307]]]}},{"type":"Feature","properties":{"county":"Broward","county_fips":"12011","district_number":"4","member_name":"Lori Alhadeff","source":"Broward County GIS / Supervisor of Elections (School Board Districts 2022)","source_url":"https://bcgishub.broward.org/hbm/rest/services/SOE/SchoolBoardMunicpalDistricts2022/FeatureServer/17"},"geometry":{"type":"Polygon","coordinates":[[[-80.2031,26.3278],[-80.297,26.3555],[-80.2976,26.1937],[-80.236,26.1938],[-80.2363,26.201],[-80.2191,26.2012],[-80.2118,26.2011],[-80.2114,26.1975],[-80.2079,26.1975],[-80.2078,26.1939],[-80.2038,26.1939],[-80.204,26.2],[-80.1956,26.2099],[-80.1956,26.215],[-80.1994,26.215],[-80.1994,26.213],[-80.2029,26.2129],[-80.2029,26.215],[-80.2041,26.215],[-80.2044,26.2201],[-80.2125,26.2201],[-80.2126,26.2219],[-80.2206,26.2219],[-80.221,26.2282],[-80.2337,26.2283],[-80.2342,26.2567],[-80.2238,26.2533],[-80.2147,26.2531],[-80.2072,26.2547],[-80.2016,26.2544],[-80.2031,26.3278]]]}},{"type":"Feature","properties":{"county":"Broward","county_fips":"12011","district_number":"5","member_name":"Jeff Holness","source":"Broward County GIS / Supervisor of Elections (School Board Districts 2022)","source_url":"https://bcgishub.broward.org/hbm/rest/services/SOE/SchoolBoardMunicpalDistricts2022/FeatureServer/17"},"geometry":{"type":"Polygon","coordinates":[[[-80.2038,26.1939],[-80.2078,26.1939],[-80.2079,26.1975],[-80.2114,26.1975],[-80.2118,26.2011],[-80.2191,26.2012],[-80.2363,26.201],[-80.236,26.1938],[-80.2844,26.1937],[-80.284,26.1785],[-80.2832,26.1741],[-80.2848,26.1688],[-80.2828,26.1595],[-80.2828,26.152],[-80.2834,26.1506],[-80.2864,26.1489],[-80.2872,26.1476],[-80.2875,26.1349],[-80.2871,26.1283],[-80.2855,26.1246],[-80.2855,26.1207],[-80.2028,26.1209],[-80.1505,26.1223],[-80.1515,26.1515],[-80.1543,26.1516],[-80.1544,26.1558],[-80.1609,26.1647],[-80.1601,26.1661],[-80.169,26.1657],[-80.169,26.1669],[-80.1699,26.1667],[-80.1699,26.1681],[-80.1709,26.168],[-80.171,26.1834],[-80.1736,26.1841],[-80.1752,26.1862],[-80.1835,26.1861],[-80.1835,26.1842],[-80.1881,26.184],[-80.1894,26.184],[-80.1895,26.1863],[-80.1972,26.1863],[-80.1972,26.185],[-80.2037,26.185],[-80.2038,26.1939]]]}},{"type":"Feature","properties":{"county":"Broward","county_fips":"12011","district_number":"3","member_name":"Sarah Leonardi","source":"Broward County GIS / Supervisor of Elections (School Board Districts 2022)","source_url":"https://bcgishub.broward.org/hbm/rest/services/SOE/SchoolBoardMunicpalDistricts2022/FeatureServer/17"},"geometry":{"type":"Polygon","coordinates":[[[-80.0846,26.2319],[-80.1566,26.2313],[-80.1559,26.2107],[-80.1738,26.2099],[-80.177,26.2092],[-80.188,26.2097],[-80.1882,26.2092],[-80.1956,26.209],[-80.1956,26.2099],[-80.204,26.2],[-80.2037,26.185],[-80.1972,26.185],[-80.1972,26.1863],[-80.1895,26.1863],[-80.1894,26.184],[-80.1881,26.184],[-80.1835,26.1842],[-80.1835,26.1861],[-80.1752,26.1862],[-80.1736,26.1841],[-80.171,26.1834],[-80.1709,26.168],[-80.1699,26.1681],[-80.1699,26.1667],[-80.169,26.1669],[-80.169,26.1657],[-80.1601,26.1661],[-80.1609,26.1647],[-80.1544,26.1558],[-80.1543,26.1516],[-80.1515,26.1515],[-80.1505,26.1223],[-80.2181,26.1208],[-80.2186,26.1164],[-80.2182,26.1058],[-80.2168,26.0937],[-80.2159,26.0915],[-80.2165,26.0917],[-80.2149,26.0538],[-80.2075,26.054],[-80.2074,26.0503],[-80.2085,26.0497],[-80.2084,26.0467],[-80.1624,26.0483],[-80.1626,26.0565],[-80.1642,26.0629],[-80.1425,26.0634],[-80.1439,26.0596],[-80.133,26.0597],[-80.1275,26.0604],[-80.1274,26.0528],[-80.1134,26.0529],[-80.1123,26.0533],[-80.1121,26.0549],[-80.1084,26.0548],[-80.1068,26.079],[-80.104,26.0904],[-80.1023,26.0943],[-80.1015,26.1089],[-80.0985,26.1276],[-80.0976,26.1481],[-80.0937,26.1687],[-80.0888,26.2052],[-80.0863,26.2166],[-80.0846,26.2319]]]}}]}