{
  "type": "FeatureCollection",
  "vintage": "OSM snapshot 2025-11-01 via ORS (sample)",
  "features": [
    {
      "type": "Feature",
      "geometry": {
        "type": "Polygon",
        "coordinates": [
          [
            [
              -80.22,
              25.925
            ],
            [
              -80.1525,
              25.895000000000003
            ],
            [
              -80.13,
              25.85
            ],
            [
              -80.157,
              25.797500000000003
            ],
            [
              -80.22,
              25.775000000000002
            ],
            [
              -80.283,
              25.805
            ],
            [
              -80.31,
              25.85
            ],
            [
              -80.2875,
              25.89875
            ],
            [
              -80.22,
              25.925
            ]
          ]
        ]
      },
      "properties": {
        "origin_msid": "13-3001",
        "origin_lon": -80.22,
        "origin_lat": 25.85,
        "mode": "driving",
        "minutes": 15,
        "computed_at": "2025-11-01T14:00:00Z",
        "population_within": 142000
      }
    },
    {
      "type": "Feature",
      "geometry": {
        "type": "Polygon",
        "coordinates": [
          [
            [
              -80.14,
              26.22
            ],
            [
              -80.065,
              26.188
            ],
            [
              -80.04,
              26.14
            ],
            [
              -80.07000000000001,
              26.084
            ],
            [
              -80.14,
              26.060000000000002
            ],
            [
              -80.21,
              26.092000000000002
            ],
            [
              -80.24,
              26.14
            ],
            [
              -80.215,
              26.192
            ],
            [
              -80.14,
              26.22
            ]
          ]
        ]
      },
      "properties": {
        "origin_msid": "06-0341",
        "origin_lon": -80.14,
        "origin_lat": 26.14,
        "mode": "driving",
        "minutes": 15,
        "computed_at": "2025-11-01T14:00:00Z",
        "population_within": 118000
      }
    },
    {
      "type": "Feature",
      "geometry": {
        "type": "Polygon",
        "coordinates": [
          [
            [
              -81.37,
              28.6
            ],
            [
              -81.28750000000001,
              28.564
            ],
            [
              -81.26,
              28.51
            ],
            [
              -81.293,
              28.447000000000003
            ],
            [
              -81.37,
              28.42
            ],
            [
              -81.447,
              28.456000000000003
            ],
            [
              -81.48,
              28.51
            ],
            [
              -81.4525,
              28.5685
            ],
            [
              -81.37,
              28.6
            ]
          ]
        ]
      },
      "properties": {
        "origin_msid": "48-0431",
        "origin_lon": -81.37,
        "origin_lat": 28.51,
        "mode": "driving",
        "minutes": 15,
        "computed_at": "2025-11-01T14:00:00Z",
        "population_within": 96000
      }
    }
  ]
}
