{"type":"FeatureCollection","features":[{"type":"Feature","geometry":{"type":"Polygon","coordinates":[[[-80.1652,26.15851],[-80.1619,26.16599],[-80.15783,26.16095],[-80.15435,26.15579],[-80.15433,26.15157],[-80.16246,26.15138],[-80.16212,26.13652],[-80.17015,26.13643],[-80.17033,26.14443],[-80.17011,26.14691],[-80.1652,26.15851]]]},"properties":{"geoid":"12011040901","state_fips":"12","county_fips":"12011","county":"Broward","tract":"040901","rural":false,"designated":true}},{"type":"Feature","geometry":{"type":"Polygon","coordinates":[[[-80.14646,26.16735],[-80.1469,26.18129],[-80.13468,26.18154],[-80.13471,26.18317],[-80.13177,26.18323],[-80.13143,26.17048],[-80.13848,26.17032],[-80.13838,26.1667],[-80.14644,26.16659],[-80.14646,26.16735]]]},"properties":{"geoid":"12011050702","state_fips":"12","county_fips":"12011","county":"Broward","tract":"050702","rural":false,"designated":true}},{"type":"Feature","geometry":{"type":"Polygon","coordinates":[[[-80.11892,26.30466],[-80.10536,26.30488],[-80.10748,26.29745],[-80.10937,26.2974],[-80.12159,26.29729],[-80.11944,26.30465],[-80.11892,26.30466]]]},"properties":{"geoid":"12011010304","state_fips":"12","county_fips":"12011","county":"Broward","tract":"010304","rural":false,"designated":true}},{"type":"Feature","geometry":{"type":"Polygon","coordinates":[[[-80.16402,26.12326],[-80.16351,26.12373],[-80.16586,26.12476],[-80.16599,26.12916],[-80.14377,26.12975],[-80.1435,26.12223],[-80.16308,26.12184],[-80.16341,26.1223],[-80.16462,26.12259],[-80.16402,26.12326]]]},"properties":{"geoid":"12011041600","state_fips":"12","county_fips":"12011","county":"Broward","tract":"041600","rural":false,"designated":true}},{"type":"Feature","geometry":{"type":"Polygon","coordinates":[[[-80.134,26.14249],[-80.13327,26.14251],[-80.14393,26.13146],[-80.14377,26.12975],[-80.14874,26.12958],[-80.14893,26.13487],[-80.15377,26.13476],[-80.15402,26.14192],[-80.134,26.14249]]]},"properties":{"geoid":"12011041700","state_fips":"12","county_fips":"12011","county":"Broward","tract":"041700","rural":false,"designated":true}},{"type":"Feature","geometry":{"type":"Polygon","coordinates":[[[-80.14599,25.97447],[-80.15823,25.97408],[-80.1586,25.98528],[-80.1423,25.98574],[-80.14208,25.97493],[-80.14223,25.97468],[-80.1435,25.97452],[-80.14599,25.97447]]]},"properties":{"geoid":"12011100300","state_fips":"12","county_fips":"12011","county":"Broward","tract":"100300","rural":false,"designated":true}},{"type":"Feature","geometry":{"type":"Polygon","coordinates":[[[-80.18539,25.99559],[-80.18343,25.99564],[-80.18316,25.98817],[-80.18114,25.98817],[-80.18104,25.9846],[-80.1984,25.9842],[-80.19851,25.98778],[-80.20678,25.98798],[-80.20706,25.99533],[-80.18539,25.99559]]]},"properties":{"geoid":"12011100700","state_fips":"12","county_fips":"12011","county":"Broward","tract":"100700","rural":false,"designated":true}},{"type":"Feature","geometry":{"type":"Polygon","coordinates":[[[-80.15275,26.05962],[-80.14439,26.05958],[-80.14981,26.03831],[-80.14981,26.03353],[-80.16813,26.03357],[-80.16829,26.0422],[-80.16761,26.04796],[-80.15513,26.04838],[-80.15487,26.05828],[-80.15509,26.05957],[-80.15275,26.05962]]]},"properties":{"geoid":"12011080500","state_fips":"12","county_fips":"12011","county":"Broward","tract":"080500","rural":false,"designated":true}},{"type":"Feature","geometry":{"type":"Polygon","coordinates":[[[-80.22704,26.16244],[-80.227,26.16486],[-80.21969,26.16479],[-80.21938,26.15024],[-80.22472,26.15024],[-80.22491,26.15355],[-80.22639,26.15532],[-80.22691,26.15651],[-80.22704,26.16244]]]},"properties":{"geoid":"12011060303","state_fips":"12","county_fips":"12011","county":"Broward","tract":"060303","rural":false,"designated":true}},{"type":"Feature","geometry":{"type":"Polygon","coordinates":[[[-80.20364,26.18257],[-80.20334,26.1729],[-80.21987,26.17288],[-80.21941,26.17848],[-80.21789,26.18266],[-80.2159,26.18588],[-80.2111,26.19158],[-80.20692,26.18707],[-80.20565,26.18658],[-80.20375,26.18654],[-80.20364,26.18257]]]},"properties":{"geoid":"12011050310","state_fips":"12","county_fips":"12011","county":"Broward","tract":"050310","rural":false,"designated":true}},{"type":"Feature","geometry":{"type":"Polygon","coordinates":[[[-80.21491,25.98694],[-80.21479,25.98458],[-80.21731,25.98414],[-80.2198,25.98224],[-80.22997,25.9819],[-80.22926,25.98655],[-80.22824,25.98937],[-80.22698,25.99164],[-80.2236,25.98889],[-80.22301,25.98879],[-80.22296,25.98788],[-80.21497,25.98815],[-80.21491,25.98694]]]},"properties":{"geoid":"12011110501","state_fips":"12","county_fips":"12011","county":"Broward","tract":"110501","rural":false,"designated":true}},{"type":"Feature","geometry":{"type":"Polygon","coordinates":[[[-80.22249,26.21462],[-80.22496,26.21504],[-80.23661,26.21499],[-80.23677,26.22082],[-80.23387,26.22079],[-80.2337,26.21868],[-80.22404,26.21861],[-80.22335,26.21853],[-80.22305,26.21789],[-80.22051,26.21869],[-80.22042,26.21465],[-80.22249,26.21462]]]},"properties":{"geoid":"12011020412","state_fips":"12","county_fips":"12011","county":"Broward","tract":"020412","rural":false,"designated":true}},{"type":"Feature","geometry":{"type":"Polygon","coordinates":[[[-80.15841,25.97933],[-80.15823,25.97408],[-80.16539,25.97389],[-80.16648,25.97358],[-80.17411,25.97357],[-80.17437,25.97407],[-80.17467,25.98477],[-80.1586,25.98528],[-80.15841,25.97933]]]},"properties":{"geoid":"12011100502","state_fips":"12","county_fips":"12011","county":"Broward","tract":"100502","rural":false,"designated":true}},{"type":"Feature","geometry":{"type":"Polygon","coordinates":[[[-80.14248,25.99182],[-80.1423,25.98574],[-80.14841,25.98561],[-80.14879,25.99663],[-80.14261,25.99675],[-80.14248,25.99182]]]},"properties":{"geoid":"12011100201","state_fips":"12","county_fips":"12011","county":"Broward","tract":"100201","rural":false,"designated":true}},{"type":"Feature","geometry":{"type":"Polygon","coordinates":[[[-80.12189,26.24548],[-80.12593,26.23136],[-80.13388,26.23123],[-80.1363,26.23149],[-80.13792,26.23146],[-80.13908,26.23105],[-80.1438,26.23114],[-80.14063,26.24568],[-80.12207,26.24603],[-80.12243,26.2448],[-80.12189,26.24548]]]},"properties":{"geoid":"12011030402","state_fips":"12","county_fips":"12011","county":"Broward","tract":"030402","rural":false,"designated":true}},{"type":"Feature","geometry":{"type":"Polygon","coordinates":[[[-80.14929,26.01143],[-80.14937,26.01346],[-80.14913,26.01326],[-80.14109,26.01348],[-80.14107,26.01253],[-80.14083,26.01255],[-80.14061,26.01164],[-80.14075,26.01066],[-80.14101,26.01066],[-80.14097,26.00973],[-80.14293,26.00969],[-80.14261,25.99675],[-80.14879,25.99663],[-80.14929,26.01143]]]},"properties":{"geoid":"12011091902","state_fips":"12","county_fips":"12011","county":"Broward","tract":"091902","rural":false,"designated":true}},{"type":"Feature","geometry":{"type":"Polygon","coordinates":[[[-80.19354,26.15635],[-80.18935,26.15652],[-80.18901,26.15676],[-80.18898,26.15736],[-80.18871,26.15717],[-80.18835,26.15778],[-80.18767,26.15814],[-80.18702,26.15803],[-80.18692,26.1508],[-80.20289,26.1506],[-80.203,26.15563],[-80.20079,26.15567],[-80.20082,26.15711],[-80.20051,26.15785],[-80.19959,26.15827],[-80.19352,26.15824],[-80.19354,26.15635]]]},"properties":{"geoid":"12011050308","state_fips":"12","county_fips":"12011","county":"Broward","tract":"050308","rural":false,"designated":true}},{"type":"Feature","geometry":{"type":"Polygon","coordinates":[[[-80.21426,25.97254],[-80.21497,25.98815],[-80.20678,25.98798],[-80.20614,25.9727],[-80.21426,25.97254]]]},"properties":{"geoid":"12011100801","state_fips":"12","county_fips":"12011","county":"Broward","tract":"100801","rural":false,"designated":true}},{"type":"Feature","geometry":{"type":"Polygon","coordinates":[[[-80.19632,26.15066],[-80.18692,26.1508],[-80.18664,26.1362],[-80.20255,26.13597],[-80.20289,26.1506],[-80.19632,26.15066]]]},"properties":{"geoid":"12011041200","state_fips":"12","county_fips":"12011","county":"Broward","tract":"041200","rural":false,"designated":true}},{"type":"Feature","geometry":{"type":"Polygon","coordinates":[[[-80.17973,26.12144],[-80.20199,26.12089],[-80.20255,26.13597],[-80.18664,26.1362],[-80.18645,26.12865],[-80.17821,26.12885],[-80.17803,26.12149],[-80.17973,26.12144]]]},"properties":{"geoid":"12011041300","state_fips":"12","county_fips":"12011","county":"Broward","tract":"041300","rural":false,"designated":true}},{"type":"Feature","geometry":{"type":"Polygon","coordinates":[[[-80.14442,26.14246],[-80.14441,26.14219],[-80.15402,26.14192],[-80.15435,26.15579],[-80.15216,26.15512],[-80.1513,26.15418],[-80.14999,26.15391],[-80.14702,26.15132],[-80.14595,26.15125],[-80.14466,26.14822],[-80.14442,26.14246]]]},"properties":{"geoid":"12011040801","state_fips":"12","county_fips":"12011","county":"Broward","tract":"040801","rural":false,"designated":true}},{"type":"Feature","geometry":{"type":"Polygon","coordinates":[[[-80.1672,26.25997],[-80.16859,26.26573],[-80.16879,26.27423],[-80.15207,26.27455],[-80.15138,26.24027],[-80.15178,26.23885],[-80.15282,26.23726],[-80.15593,26.23435],[-80.15651,26.23294],[-80.1567,26.23091],[-80.17792,26.23076],[-80.17021,26.23998],[-80.1678,26.24425],[-80.1668,26.24722],[-80.16629,26.25085],[-80.16646,26.25606],[-80.1672,26.25997]]]},"properties":{"geoid":"12011030600","state_fips":"12","county_fips":"12011","county":"Broward","tract":"030600","rural":false,"designated":true}},{"type":"Feature","geometry":{"type":"Polygon","coordinates":[[[-80.1713,26.13643],[-80.17438,26.13642],[-80.17442,26.13832],[-80.1785,26.13825],[-80.17854,26.14097],[-80.17487,26.14105],[-80.17492,26.14524],[-80.18222,26.14505],[-80.18223,26.1414],[-80.18675,26.14162],[-80.18692,26.1508],[-80.16839,26.15129],[-80.1702,26.14639],[-80.17015,26.13643],[-80.1713,26.13643]]]},"properties":{"geoid":"12011041000","state_fips":"12","county_fips":"12011","county":"Broward","tract":"041000","rural":false,"designated":true}},{"type":"Feature","geometry":{"type":"Polygon","coordinates":[[[-80.17436,26.13515],[-80.17432,26.13268],[-80.17726,26.13263],[-80.17838,26.13351],[-80.17821,26.12885],[-80.18645,26.12865],[-80.18675,26.14162],[-80.18223,26.1414],[-80.18222,26.14505],[-80.17492,26.14524],[-80.17487,26.14105],[-80.17854,26.14097],[-80.1785,26.13825],[-80.17442,26.13832],[-80.17436,26.13515]]]},"properties":{"geoid":"12011041100","state_fips":"12","county_fips":"12011","county":"Broward","tract":"041100","rural":false,"designated":true}},{"type":"Feature","geometry":{"type":"Polygon","coordinates":[[[-80.16351,26.12373],[-80.16462,26.12259],[-80.16341,26.1223],[-80.16308,26.12184],[-80.17803,26.12149],[-80.17838,26.13351],[-80.17726,26.13263],[-80.17432,26.13268],[-80.17438,26.13642],[-80.16394,26.13654],[-80.16387,26.1328],[-80.16519,26.13278],[-80.16516,26.12918],[-80.16599,26.12916],[-80.16586,26.12476],[-80.16351,26.12373]]]},"properties":{"geoid":"12011041400","state_fips":"12","county_fips":"12011","county":"Broward","tract":"041400","rural":false,"designated":true}},{"type":"Feature","geometry":{"type":"Polygon","coordinates":[[[-80.15454,26.12941],[-80.16516,26.12918],[-80.16519,26.13278],[-80.16387,26.1328],[-80.16394,26.13654],[-80.15384,26.1365],[-80.15377,26.13476],[-80.14893,26.13487],[-80.14874,26.12958],[-80.15454,26.12941]]]},"properties":{"geoid":"12011041500","state_fips":"12","county_fips":"12011","county":"Broward","tract":"041500","rural":false,"designated":true}},{"type":"Feature","geometry":{"type":"Polygon","coordinates":[[[-80.19444,26.16535],[-80.19971,26.16533],[-80.20317,26.16487],[-80.20359,26.18033],[-80.18733,26.18038],[-80.18707,26.16537],[-80.19444,26.16535]]]},"properties":{"geoid":"12011050301","state_fips":"12","county_fips":"12011","county":"Broward","tract":"050301","rural":false,"designated":true}},{"type":"Feature","geometry":{"type":"Polygon","coordinates":[[[-80.187,26.18627],[-80.18356,26.18642],[-80.17791,26.18792],[-80.15515,26.1884],[-80.15322,26.1882],[-80.15424,26.1835],[-80.15522,26.1811],[-80.15923,26.18128],[-80.17104,26.18353],[-80.17099,26.17323],[-80.18722,26.17304],[-80.18733,26.18038],[-80.20359,26.18033],[-80.20375,26.18654],[-80.187,26.18627]]]},"properties":{"geoid":"12011050207","state_fips":"12","county_fips":"12011","county":"Broward","tract":"050207","rural":false,"designated":true}},{"type":"Feature","geometry":{"type":"Polygon","coordinates":[[[-80.21621,26.16485],[-80.21969,26.16479],[-80.21987,26.17288],[-80.21148,26.17284],[-80.21109,26.16489],[-80.21621,26.16485]]]},"properties":{"geoid":"12011050311","state_fips":"12","county_fips":"12011","county":"Broward","tract":"050311","rural":false,"designated":true}},{"type":"Feature","geometry":{"type":"Polygon","coordinates":[[[-80.21678,26.16485],[-80.21109,26.16489],[-80.21094,26.16436],[-80.21133,26.16366],[-80.21118,26.16132],[-80.21317,26.16126],[-80.213,26.1569],[-80.21706,26.157],[-80.21703,26.15557],[-80.21949,26.15546],[-80.21969,26.16479],[-80.21678,26.16485]]]},"properties":{"geoid":"12011050312","state_fips":"12","county_fips":"12011","county":"Broward","tract":"050312","rural":false,"designated":true}},{"type":"Feature","geometry":{"type":"Polygon","coordinates":[[[-80.24248,25.81237],[-80.24848,25.81221],[-80.24892,25.82369],[-80.24077,25.82394],[-80.24042,25.81231],[-80.24248,25.81237]]]},"properties":{"geoid":"12086001702","state_fips":"12","county_fips":"12086","county":"Miami-Dade","tract":"001702","rural":false,"designated":true}},{"type":"Feature","geometry":{"type":"Polygon","coordinates":[[[-80.21007,25.8126],[-80.2061,25.8125],[-80.20572,25.80268],[-80.21137,25.80251],[-80.21151,25.80623],[-80.21308,25.80618],[-80.21319,25.80993],[-80.21546,25.8098],[-80.21575,25.81067],[-80.21572,25.8098],[-80.22388,25.80953],[-80.22402,25.81222],[-80.21007,25.8126]]]},"properties":{"geoid":"12086002502","state_fips":"12","county_fips":"12086","county":"Miami-Dade","tract":"002502","rural":false,"designated":true}},{"type":"Feature","geometry":{"type":"Polygon","coordinates":[[[-80.22562,25.80209],[-80.23176,25.80191],[-80.23217,25.81204],[-80.22402,25.81222],[-80.22356,25.80215],[-80.22562,25.80209]]]},"properties":{"geoid":"12086002404","state_fips":"12","county_fips":"12086","county":"Miami-Dade","tract":"002404","rural":false,"designated":true}},{"type":"Feature","geometry":{"type":"Polygon","coordinates":[[[-80.20293,25.77916],[-80.20291,25.7787],[-80.19615,25.77888],[-80.19569,25.76879],[-80.19766,25.76886],[-80.1996,25.77074],[-80.20084,25.77369],[-80.20152,25.77457],[-80.2048,25.77743],[-80.20695,25.77831],[-80.20643,25.77859],[-80.2068,25.78435],[-80.2031,25.78448],[-80.20293,25.77916]]]},"properties":{"geoid":"12086003601","state_fips":"12","county_fips":"12086","county":"Miami-Dade","tract":"003601","rural":false,"designated":true}},{"type":"Feature","geometry":{"type":"Polygon","coordinates":[[[-80.22403,25.81259],[-80.22402,25.81222],[-80.23217,25.81204],[-80.23254,25.82121],[-80.23292,25.82306],[-80.23267,25.82418],[-80.22455,25.82443],[-80.22403,25.81259]]]},"properties":{"geoid":"12086001802","state_fips":"12","county_fips":"12086","county":"Miami-Dade","tract":"001802","rural":false,"designated":true}},{"type":"Feature","geometry":{"type":"Polygon","coordinates":[[[-80.47695,25.43932],[-80.4807,25.44269],[-80.4833,25.44266],[-80.48328,25.44051],[-80.49332,25.44049],[-80.49328,25.43313],[-80.5015,25.43311],[-80.50157,25.46236],[-80.4935,25.46242],[-80.49345,25.45513],[-80.4772,25.45517],[-80.47706,25.44088],[-80.47667,25.43911],[-80.47695,25.43932]]]},"properties":{"geoid":"12086011403","state_fips":"12","county_fips":"12086","county":"Miami-Dade","tract":"011403","rural":false,"designated":true}},{"type":"Feature","geometry":{"type":"Polygon","coordinates":[[[-80.46088,25.47555],[-80.4609,25.47732],[-80.46957,25.47723],[-80.46238,25.48459],[-80.461,25.48459],[-80.45383,25.49198],[-80.45198,25.492],[-80.45178,25.49093],[-80.44791,25.4867],[-80.44761,25.47977],[-80.44692,25.47884],[-80.44687,25.47739],[-80.43957,25.4775],[-80.45255,25.46933],[-80.46246,25.46246],[-80.46298,25.46245],[-80.46294,25.46283],[-80.46084,25.46451],[-80.46088,25.47555]]]},"properties":{"geoid":"12086011001","state_fips":"12","county_fips":"12086","county":"Miami-Dade","tract":"011001","rural":false,"designated":true}},{"type":"Feature","geometry":{"type":"Polygon","coordinates":[[[-80.35752,25.57015],[-80.34792,25.57023],[-80.35403,25.56437],[-80.35708,25.55996],[-80.35786,25.55949],[-80.35913,25.5593],[-80.36027,25.56122],[-80.36073,25.56307],[-80.3619,25.56569],[-80.36216,25.56844],[-80.36376,25.56843],[-80.37229,25.56998],[-80.37243,25.57569],[-80.37269,25.57629],[-80.36881,25.58],[-80.36573,25.57751],[-80.36358,25.57655],[-80.35775,25.57633],[-80.35752,25.57015]]]},"properties":{"geoid":"12086010609","state_fips":"12","county_fips":"12086","county":"Miami-Dade","tract":"010609","rural":false,"designated":true}},{"type":"Feature","geometry":{"type":"Polygon","coordinates":[[[-80.28784,25.95373],[-80.27821,25.95418],[-80.27779,25.94697],[-80.29429,25.94658],[-80.2946,25.95363],[-80.28784,25.95373]]]},"properties":{"geoid":"12086010016","state_fips":"12","county_fips":"12086","county":"Miami-Dade","tract":"010016","rural":false,"designated":true}},{"type":"Feature","geometry":{"type":"Polygon","coordinates":[[[-80.29498,25.95693],[-80.29498,25.96423],[-80.29061,25.96426],[-80.29044,25.96402],[-80.29004,25.96428],[-80.28593,25.96418],[-80.27827,25.96458],[-80.27821,25.95418],[-80.2946,25.95363],[-80.29455,25.95695],[-80.29498,25.95693]]]},"properties":{"geoid":"12086010015","state_fips":"12","county_fips":"12086","county":"Miami-Dade","tract":"010015","rural":false,"designated":true}},{"type":"Feature","geometry":{"type":"Polygon","coordinates":[[[-80.41963,25.49228],[-80.4297,25.48366],[-80.43957,25.4775],[-80.44069,25.47748],[-80.44054,25.47795],[-80.43895,25.47848],[-80.43685,25.47985],[-80.43636,25.4808],[-80.43669,25.49213],[-80.42864,25.49219],[-80.42886,25.49951],[-80.41746,25.49952],[-80.41792,25.49537],[-80.41853,25.49377],[-80.41963,25.49228]]]},"properties":{"geoid":"12086011005","state_fips":"12","county_fips":"12086","county":"Miami-Dade","tract":"011005","rural":false,"designated":true}},{"type":"Feature","geometry":{"type":"Polygon","coordinates":[[[-80.26257,25.9713],[-80.24677,25.97188],[-80.24651,25.96113],[-80.27312,25.96216],[-80.27814,25.96458],[-80.28593,25.96418],[-80.29004,25.96428],[-80.29044,25.96402],[-80.29061,25.96426],[-80.29498,25.96423],[-80.29507,25.96356],[-80.29519,25.97057],[-80.26257,25.9713]]]},"properties":{"geoid":"12086010001","state_fips":"12","county_fips":"12086","county":"Miami-Dade","tract":"010001","rural":false,"designated":true}},{"type":"Feature","geometry":{"type":"Polygon","coordinates":[[[-80.23806,25.97203],[-80.2296,25.97234],[-80.22932,25.96047],[-80.24651,25.96113],[-80.24677,25.97188],[-80.23806,25.97203]]]},"properties":{"geoid":"12086009904","state_fips":"12","county_fips":"12086","county":"Miami-Dade","tract":"009904","rural":false,"designated":true}},{"type":"Feature","geometry":{"type":"Polygon","coordinates":[[[-80.24532,25.94096],[-80.2446,25.92645],[-80.26065,25.92574],[-80.26138,25.94034],[-80.24532,25.94096]]]},"properties":{"geoid":"12086009400","state_fips":"12","county_fips":"12086","county":"Miami-Dade","tract":"009400","rural":false,"designated":true}},{"type":"Feature","geometry":{"type":"Polygon","coordinates":[[[-80.29175,25.89161],[-80.29126,25.88435],[-80.30756,25.88447],[-80.30787,25.89157],[-80.30388,25.89159],[-80.30382,25.89068],[-80.29981,25.89068],[-80.29987,25.89156],[-80.29175,25.89161]]]},"properties":{"geoid":"12086009308","state_fips":"12","county_fips":"12086","county":"Miami-Dade","tract":"009308","rural":false,"designated":true}},{"type":"Feature","geometry":{"type":"Polygon","coordinates":[[[-80.30019,25.89883],[-80.29202,25.89885],[-80.29165,25.89161],[-80.29987,25.89156],[-80.29981,25.89068],[-80.30382,25.89068],[-80.30388,25.89159],[-80.30787,25.89157],[-80.30822,25.8988],[-80.30019,25.89883]]]},"properties":{"geoid":"12086009307","state_fips":"12","county_fips":"12086","county":"Miami-Dade","tract":"009307","rural":false,"designated":true}},{"type":"Feature","geometry":{"type":"Polygon","coordinates":[[[-80.46088,25.47555],[-80.46084,25.46451],[-80.4628,25.46301],[-80.46298,25.46245],[-80.47729,25.46249],[-80.47749,25.48447],[-80.46238,25.48459],[-80.46957,25.47723],[-80.4609,25.47732],[-80.46088,25.47555]]]},"properties":{"geoid":"12086011101","state_fips":"12","county_fips":"12086","county":"Miami-Dade","tract":"011101","rural":false,"designated":true}},{"type":"Feature","geometry":{"type":"Polygon","coordinates":[[[-80.34834,25.61391],[-80.34718,25.61393],[-80.35535,25.59609],[-80.35787,25.59614],[-80.35674,25.59852],[-80.36447,25.5983],[-80.36548,25.61323],[-80.34834,25.61391]]]},"properties":{"geoid":"12086008309","state_fips":"12","county_fips":"12086","county":"Miami-Dade","tract":"008309","rural":false,"designated":true}},{"type":"Feature","geometry":{"type":"Polygon","coordinates":[[[-80.27963,25.82996],[-80.28562,25.82981],[-80.28584,25.83614],[-80.27986,25.83636],[-80.27963,25.82996]]]},"properties":{"geoid":"12086000807","state_fips":"12","county_fips":"12086","county":"Miami-Dade","tract":"000807","rural":false,"designated":true}},{"type":"Feature","geometry":{"type":"Polygon","coordinates":[[[-80.21575,25.81067],[-80.21546,25.8098],[-80.21319,25.80993],[-80.21308,25.80618],[-80.21151,25.80623],[-80.21137,25.80251],[-80.22356,25.80215],[-80.22388,25.80953],[-80.21572,25.8098],[-80.21575,25.81067]]]},"properties":{"geoid":"12086002501","state_fips":"12","county_fips":"12086","county":"Miami-Dade","tract":"002501","rural":false,"designated":true}},{"type":"Feature","geometry":{"type":"Polygon","coordinates":[[[-80.33899,25.6044],[-80.33227,25.60453],[-80.33207,25.59918],[-80.34812,25.59879],[-80.3481,25.59606],[-80.35535,25.59609],[-80.34676,25.61488],[-80.34611,25.61777],[-80.34347,25.62379],[-80.34184,25.62317],[-80.34136,25.62178],[-80.34079,25.62149],[-80.34072,25.61989],[-80.3412,25.61988],[-80.3412,25.6196],[-80.34036,25.60436],[-80.33899,25.6044]]]},"properties":{"geoid":"12086008208","state_fips":"12","county_fips":"12086","county":"Miami-Dade","tract":"008208","rural":false,"designated":true}},{"type":"Feature","geometry":{"type":"Polygon","coordinates":[[[-80.36132,25.63562],[-80.35982,25.63563],[-80.35243,25.63119],[-80.34917,25.63111],[-80.34831,25.63002],[-80.3481,25.62875],[-80.38024,25.62741],[-80.38398,25.63102],[-80.38511,25.63312],[-80.38555,25.64319],[-80.38295,25.6448],[-80.38281,25.64184],[-80.37624,25.64243],[-80.37616,25.64194],[-80.37548,25.64145],[-80.36817,25.63856],[-80.3659,25.63844],[-80.36222,25.63565],[-80.36132,25.63562]]]},"properties":{"geoid":"12086008304","state_fips":"12","county_fips":"12086","county":"Miami-Dade","tract":"008304","rural":false,"designated":true}},{"type":"Feature","geometry":{"type":"Polygon","coordinates":[[[-80.28643,25.70441],[-80.29341,25.70414],[-80.29411,25.71862],[-80.28798,25.71884],[-80.28795,25.7181],[-80.28589,25.71817],[-80.2854,25.70445],[-80.28643,25.70441]]]},"properties":{"geoid":"12086007603","state_fips":"12","county_fips":"12086","county":"Miami-Dade","tract":"007603","rural":false,"designated":true}},{"type":"Feature","geometry":{"type":"Polygon","coordinates":[[[-80.49359,25.47039],[-80.49371,25.47706],[-80.48767,25.4771],[-80.48762,25.47526],[-80.47747,25.47533],[-80.4772,25.45517],[-80.49345,25.45513],[-80.49359,25.47039]]]},"properties":{"geoid":"12086011300","state_fips":"12","county_fips":"12086","county":"Miami-Dade","tract":"011300","rural":false,"designated":true}},{"type":"Feature","geometry":{"type":"Polygon","coordinates":[[[-80.24482,25.72535],[-80.2463,25.72366],[-80.247,25.72429],[-80.24702,25.72477],[-80.24952,25.72491],[-80.24952,25.72408],[-80.25342,25.72398],[-80.25344,25.72445],[-80.25509,25.72439],[-80.25762,25.72426],[-80.25802,25.72372],[-80.26155,25.72361],[-80.26169,25.72653],[-80.25389,25.73266],[-80.25371,25.72975],[-80.2514,25.7298],[-80.25134,25.72844],[-80.24996,25.72847],[-80.24992,25.72779],[-80.24512,25.72797],[-80.24375,25.72672],[-80.24482,25.72535]]]},"properties":{"geoid":"12086007200","state_fips":"12","county_fips":"12086","county":"Miami-Dade","tract":"007200","rural":false,"designated":true}},{"type":"Feature","geometry":{"type":"Polygon","coordinates":[[[-80.14747,25.96277],[-80.14787,25.97441],[-80.14223,25.97468],[-80.14452,25.96904],[-80.14175,25.96907],[-80.14164,25.9673],[-80.13369,25.96758],[-80.13379,25.96638],[-80.13723,25.96664],[-80.13839,25.96629],[-80.13948,25.9653],[-80.13968,25.96393],[-80.13936,25.95731],[-80.13848,25.95372],[-80.14146,25.95333],[-80.1453,25.95501],[-80.14721,25.95508],[-80.14747,25.96277]]]},"properties":{"geoid":"12086000134","state_fips":"12","county_fips":"12086","county":"Miami-Dade","tract":"000134","rural":false,"designated":true}},{"type":"Feature","geometry":{"type":"Polygon","coordinates":[[[-80.3196,25.76274],[-80.32077,25.76241],[-80.32038,25.76637],[-80.32098,25.78059],[-80.32117,25.80672],[-80.32256,25.85366],[-80.30428,25.84009],[-80.30931,25.83687],[-80.30981,25.83494],[-80.3089,25.78908],[-80.31696,25.78867],[-80.31847,25.78764],[-80.31908,25.78617],[-80.3188,25.78514],[-80.31794,25.78453],[-80.31077,25.78451],[-80.30952,25.78405],[-80.30874,25.78324],[-80.30909,25.78277],[-80.30892,25.77938],[-80.3093,25.77724],[-80.31015,25.77699],[-80.31004,25.77126],[-80.31166,25.77058],[-80.31255,25.77073],[-80.31346,25.76972],[-80.31525,25.76859],[-80.31712,25.76626],[-80.31829,25.76317],[-80.3196,25.76274]]]},"properties":{"geoid":"12086009100","state_fips":"12","county_fips":"12086","county":"Miami-Dade","tract":"009100","rural":false,"designated":true}},{"type":"Feature","geometry":{"type":"Polygon","coordinates":[[[-80.30442,25.77395],[-80.29821,25.7767],[-80.29134,25.78031],[-80.28842,25.78084],[-80.28812,25.77078],[-80.31305,25.77015],[-80.31255,25.77073],[-80.31166,25.77058],[-80.30972,25.77141],[-80.30967,25.77444],[-80.30871,25.77717],[-80.30831,25.77635],[-80.30822,25.77224],[-80.30442,25.77395]]]},"properties":{"geoid":"12086005701","state_fips":"12","county_fips":"12086","county":"Miami-Dade","tract":"005701","rural":false,"designated":true}},{"type":"Feature","geometry":{"type":"Polygon","coordinates":[[[-80.19245,25.80417],[-80.19082,25.81143],[-80.18938,25.81147],[-80.18908,25.78954],[-80.19598,25.78931],[-80.19245,25.80417]]]},"properties":{"geoid":"12086002702","state_fips":"12","county_fips":"12086","county":"Miami-Dade","tract":"002702","rural":false,"designated":true}},{"type":"Feature","geometry":{"type":"Polygon","coordinates":[[[-80.20639,25.82052],[-80.2061,25.8125],[-80.22402,25.81222],[-80.22441,25.8208],[-80.20802,25.82124],[-80.20806,25.82216],[-80.20647,25.82222],[-80.20639,25.82052]]]},"properties":{"geoid":"12086002300","state_fips":"12","county_fips":"12086","county":"Miami-Dade","tract":"002300","rural":false,"designated":true}},{"type":"Feature","geometry":{"type":"Polygon","coordinates":[[[-80.18777,25.82476],[-80.19082,25.81143],[-80.19536,25.81141],[-80.19605,25.82528],[-80.18763,25.8255],[-80.18777,25.82476]]]},"properties":{"geoid":"12086002201","state_fips":"12","county_fips":"12086","county":"Miami-Dade","tract":"002201","rural":false,"designated":true}},{"type":"Feature","geometry":{"type":"Polygon","coordinates":[[[-80.19655,25.8323],[-80.19635,25.83262],[-80.19223,25.8327],[-80.19224,25.83312],[-80.18797,25.83323],[-80.18763,25.8255],[-80.19605,25.82528],[-80.19655,25.8323]]]},"properties":{"geoid":"12086002004","state_fips":"12","county_fips":"12086","county":"Miami-Dade","tract":"002004","rural":false,"designated":true}},{"type":"Feature","geometry":{"type":"Polygon","coordinates":[[[-80.22653,25.87948],[-80.22674,25.8831],[-80.20895,25.88383],[-80.20885,25.87655],[-80.21839,25.87616],[-80.21853,25.87979],[-80.22653,25.87948]]]},"properties":{"geoid":"12086000409","state_fips":"12","county_fips":"12086","county":"Miami-Dade","tract":"000409","rural":false,"designated":true}},{"type":"Feature","geometry":{"type":"Polygon","coordinates":[[[-80.33209,25.88414],[-80.33167,25.88414],[-80.33135,25.87703],[-80.33922,25.87702],[-80.33954,25.88408],[-80.33209,25.88414]]]},"properties":{"geoid":"12086013400","state_fips":"12","county_fips":"12086","county":"Miami-Dade","tract":"013400","rural":false,"designated":true}},{"type":"Feature","geometry":{"type":"Polygon","coordinates":[[[-80.19655,25.8323],[-80.19605,25.82528],[-80.20655,25.82498],[-80.20653,25.8276],[-80.20584,25.83073],[-80.20583,25.83233],[-80.19635,25.83262],[-80.19655,25.8323]]]},"properties":{"geoid":"12086002003","state_fips":"12","county_fips":"12086","county":"Miami-Dade","tract":"002003","rural":false,"designated":true}},{"type":"Feature","geometry":{"type":"Polygon","coordinates":[[[-80.20596,25.83511],[-80.20601,25.83626],[-80.19642,25.83634],[-80.19659,25.84004],[-80.18835,25.84025],[-80.18797,25.83323],[-80.19224,25.83312],[-80.19223,25.8327],[-80.20583,25.83233],[-80.20596,25.83511]]]},"properties":{"geoid":"12086002001","state_fips":"12","county_fips":"12086","county":"Miami-Dade","tract":"002001","rural":false,"designated":true}},{"type":"Feature","geometry":{"type":"Polygon","coordinates":[[[-80.2163,25.82617],[-80.21645,25.82832],[-80.20669,25.82864],[-80.20633,25.82847],[-80.20647,25.82222],[-80.20806,25.82216],[-80.20802,25.82124],[-80.22441,25.8208],[-80.22455,25.82443],[-80.21625,25.82467],[-80.2163,25.82617]]]},"properties":{"geoid":"12086001904","state_fips":"12","county_fips":"12086","county":"Miami-Dade","tract":"001904","rural":false,"designated":true}},{"type":"Feature","geometry":{"type":"Polygon","coordinates":[[[-80.21634,25.82662],[-80.21625,25.82467],[-80.22455,25.82443],[-80.2249,25.83165],[-80.21659,25.83198],[-80.21634,25.82662]]]},"properties":{"geoid":"12086001903","state_fips":"12","county_fips":"12086","county":"Miami-Dade","tract":"001903","rural":false,"designated":true}},{"type":"Feature","geometry":{"type":"Polygon","coordinates":[[[-80.20625,25.82871],[-80.20633,25.82847],[-80.20696,25.82867],[-80.21645,25.82832],[-80.2172,25.8394],[-80.20603,25.83974],[-80.20584,25.83073],[-80.20625,25.82871]]]},"properties":{"geoid":"12086001901","state_fips":"12","county_fips":"12086","county":"Miami-Dade","tract":"001901","rural":false,"designated":true}},{"type":"Feature","geometry":{"type":"Polygon","coordinates":[[[-80.23394,25.82414],[-80.24077,25.82394],[-80.24111,25.83114],[-80.2249,25.83165],[-80.22455,25.82443],[-80.23394,25.82414]]]},"properties":{"geoid":"12086001801","state_fips":"12","county_fips":"12086","county":"Miami-Dade","tract":"001801","rural":false,"designated":true}},{"type":"Feature","geometry":{"type":"Polygon","coordinates":[[[-80.24113,25.8315],[-80.24158,25.84127],[-80.2321,25.84067],[-80.2253,25.84086],[-80.2249,25.83165],[-80.24111,25.83114],[-80.24113,25.8315]]]},"properties":{"geoid":"12086001502","state_fips":"12","county_fips":"12086","county":"Miami-Dade","tract":"001502","rural":false,"designated":true}},{"type":"Feature","geometry":{"type":"Polygon","coordinates":[[[-80.21681,25.83221],[-80.2168,25.83197],[-80.2249,25.83165],[-80.22525,25.83913],[-80.2172,25.8394],[-80.21681,25.83221]]]},"properties":{"geoid":"12086001501","state_fips":"12","county_fips":"12086","county":"Miami-Dade","tract":"001501","rural":false,"designated":true}},{"type":"Feature","geometry":{"type":"Polygon","coordinates":[[[-80.18841,25.8524],[-80.18888,25.85022],[-80.18835,25.84025],[-80.19659,25.84004],[-80.1971,25.85303],[-80.19211,25.8536],[-80.18972,25.85293],[-80.18881,25.85296],[-80.18841,25.8524]]]},"properties":{"geoid":"12086001402","state_fips":"12","county_fips":"12086","county":"Miami-Dade","tract":"001402","rural":false,"designated":true}},{"type":"Feature","geometry":{"type":"Polygon","coordinates":[[[-80.19693,25.83633],[-80.20601,25.83626],[-80.20626,25.8429],[-80.20772,25.84713],[-80.19692,25.84744],[-80.19642,25.83634],[-80.19693,25.83633]]]},"properties":{"geoid":"12086001401","state_fips":"12","county_fips":"12086","county":"Miami-Dade","tract":"001401","rural":false,"designated":true}},{"type":"Feature","geometry":{"type":"Polygon","coordinates":[[[-80.292,25.89862],[-80.29265,25.91337],[-80.25912,25.91498],[-80.2586,25.91422],[-80.25827,25.91296],[-80.25813,25.90145],[-80.25862,25.89921],[-80.26002,25.89664],[-80.26766,25.89653],[-80.2677,25.89819],[-80.26826,25.89821],[-80.27554,25.89795],[-80.27547,25.89627],[-80.28177,25.8962],[-80.28424,25.89686],[-80.28752,25.89709],[-80.29006,25.89845],[-80.292,25.89862]]]},"properties":{"geoid":"12086980800","state_fips":"12","county_fips":"12086","county":"Miami-Dade","tract":"980800","rural":false,"designated":true}},{"type":"Feature","geometry":{"type":"Polygon","coordinates":[[[-80.25255,25.81141],[-80.25587,25.81072],[-80.25851,25.80964],[-80.25918,25.83068],[-80.24111,25.83114],[-80.24077,25.82394],[-80.24892,25.82369],[-80.24848,25.81221],[-80.25255,25.81141]]]},"properties":{"geoid":"12086001701","state_fips":"12","county_fips":"12086","county":"Miami-Dade","tract":"001701","rural":false,"designated":true}},{"type":"Feature","geometry":{"type":"Polygon","coordinates":[[[-80.2078,25.84903],[-80.20808,25.85697],[-80.20772,25.85725],[-80.20542,25.85733],[-80.20547,25.85825],[-80.19729,25.85853],[-80.19692,25.84744],[-80.20772,25.84713],[-80.2078,25.84903]]]},"properties":{"geoid":"12086001006","state_fips":"12","county_fips":"12086","county":"Miami-Dade","tract":"001006","rural":false,"designated":true}},{"type":"Feature","geometry":{"type":"Polygon","coordinates":[[[-80.20799,25.85439],[-80.21963,25.85559],[-80.22111,25.85684],[-80.22375,25.86129],[-80.20823,25.86192],[-80.20799,25.85439]]]},"properties":{"geoid":"12086001005","state_fips":"12","county_fips":"12086","county":"Miami-Dade","tract":"001005","rural":false,"designated":true}},{"type":"Feature","geometry":{"type":"Polygon","coordinates":[[[-80.24169,25.84477],[-80.24175,25.84605],[-80.20772,25.84713],[-80.20626,25.8429],[-80.20603,25.83974],[-80.22525,25.83913],[-80.2253,25.84086],[-80.2321,25.84067],[-80.24158,25.84127],[-80.24169,25.84477]]]},"properties":{"geoid":"12086001004","state_fips":"12","county_fips":"12086","county":"Miami-Dade","tract":"001004","rural":false,"designated":true}},{"type":"Feature","geometry":{"type":"Polygon","coordinates":[[[-80.20789,25.85169],[-80.20772,25.84713],[-80.2254,25.84655],[-80.22565,25.85393],[-80.23384,25.85368],[-80.23409,25.86095],[-80.22375,25.86129],[-80.22111,25.85684],[-80.21996,25.85577],[-80.20799,25.85426],[-80.20789,25.85169]]]},"properties":{"geoid":"12086001002","state_fips":"12","county_fips":"12086","county":"Miami-Dade","tract":"001002","rural":false,"designated":true}},{"type":"Feature","geometry":{"type":"Polygon","coordinates":[[[-80.19818,25.96566],[-80.20592,25.96557],[-80.20614,25.9727],[-80.19442,25.97317],[-80.19435,25.97008],[-80.19363,25.96837],[-80.19205,25.96736],[-80.18971,25.9672],[-80.18822,25.96665],[-80.18739,25.96585],[-80.18665,25.96427],[-80.18566,25.96309],[-80.19087,25.9588],[-80.19323,25.95792],[-80.19535,25.95768],[-80.1953,25.95817],[-80.19409,25.95825],[-80.1941,25.95912],[-80.1951,25.96141],[-80.19755,25.96134],[-80.19745,25.96047],[-80.19845,25.95944],[-80.19862,25.96053],[-80.19817,25.96224],[-80.19818,25.96566]]]},"properties":{"geoid":"12086009807","state_fips":"12","county_fips":"12086","county":"Miami-Dade","tract":"009807","rural":false,"designated":true}},{"type":"Feature","geometry":{"type":"Polygon","coordinates":[[[-80.2511,25.95321],[-80.24987,25.95397],[-80.24942,25.95537],[-80.24832,25.95537],[-80.24847,25.96042],[-80.2477,25.96115],[-80.24651,25.96113],[-80.24532,25.94096],[-80.26138,25.94034],[-80.26171,25.9476],[-80.25367,25.94789],[-80.25391,25.95304],[-80.2511,25.95321]]]},"properties":{"geoid":"12086010011","state_fips":"12","county_fips":"12086","county":"Miami-Dade","tract":"010011","rural":false,"designated":true}},{"type":"Feature","geometry":{"type":"Polygon","coordinates":[[[-80.25526,25.91516],[-80.29265,25.91337],[-80.29314,25.92508],[-80.28106,25.92538],[-80.27673,25.92513],[-80.2446,25.92645],[-80.24431,25.91558],[-80.25526,25.91516]]]},"properties":{"geoid":"12086000501","state_fips":"12","county_fips":"12086","county":"Miami-Dade","tract":"000501","rural":false,"designated":true}},{"type":"Feature","geometry":{"type":"Polygon","coordinates":[[[-80.27337,25.82488],[-80.27331,25.82288],[-80.27934,25.82274],[-80.27963,25.82996],[-80.26957,25.83033],[-80.26935,25.82582],[-80.27343,25.82566],[-80.27337,25.82488]]]},"properties":{"geoid":"12086001606","state_fips":"12","county_fips":"12086","county":"Miami-Dade","tract":"001606","rural":false,"designated":true}},{"type":"Feature","geometry":{"type":"Polygon","coordinates":[[[-80.25218,25.77193],[-80.2391,25.77234],[-80.23885,25.76518],[-80.25514,25.76469],[-80.25546,25.77184],[-80.25218,25.77193]]]},"properties":{"geoid":"12086005502","state_fips":"12","county_fips":"12086","county":"Miami-Dade","tract":"005502","rural":false,"designated":true}},{"type":"Feature","geometry":{"type":"Polygon","coordinates":[[[-80.22654,25.80206],[-80.22356,25.80215],[-80.22326,25.79475],[-80.23982,25.79428],[-80.24003,25.80169],[-80.22654,25.80206]]]},"properties":{"geoid":"12086002402","state_fips":"12","county_fips":"12086","county":"Miami-Dade","tract":"002402","rural":false,"designated":true}},{"type":"Feature","geometry":{"type":"Polygon","coordinates":[[[-80.22589,25.86119],[-80.23409,25.86095],[-80.23433,25.86832],[-80.20854,25.86924],[-80.20823,25.86192],[-80.22589,25.86119]]]},"properties":{"geoid":"12086000408","state_fips":"12","county_fips":"12086","county":"Miami-Dade","tract":"000408","rural":false,"designated":true}},{"type":"Feature","geometry":{"type":"Polygon","coordinates":[[[-80.22737,25.89761],[-80.22744,25.8991],[-80.21738,25.89951],[-80.21536,25.89958],[-80.21529,25.89811],[-80.20972,25.89833],[-80.20938,25.89091],[-80.22705,25.89038],[-80.22737,25.89761]]]},"properties":{"geoid":"12086000405","state_fips":"12","county_fips":"12086","county":"Miami-Dade","tract":"000405","rural":false,"designated":true}},{"type":"Feature","geometry":{"type":"Polygon","coordinates":[[[-80.24095,25.88274],[-80.24307,25.88272],[-80.24362,25.89727],[-80.22737,25.89761],[-80.22674,25.8831],[-80.24095,25.88274]]]},"properties":{"geoid":"12086000404","state_fips":"12","county_fips":"12086","county":"Miami-Dade","tract":"000404","rural":false,"designated":true}},{"type":"Feature","geometry":{"type":"Polygon","coordinates":[[[-80.28967,25.82969],[-80.27963,25.82996],[-80.27934,25.82274],[-80.28054,25.82241],[-80.28943,25.82913],[-80.28996,25.82982],[-80.28967,25.82969]]]},"properties":{"geoid":"12086001605","state_fips":"12","county_fips":"12086","county":"Miami-Dade","tract":"001605","rural":false,"designated":true}},{"type":"Feature","geometry":{"type":"Polygon","coordinates":[[[-80.20291,25.7787],[-80.2031,25.78448],[-80.2068,25.78435],[-80.20693,25.78786],[-80.19621,25.78822],[-80.19595,25.78138],[-80.19623,25.78081],[-80.19615,25.77888],[-80.20291,25.7787]]]},"properties":{"geoid":"12086003400","state_fips":"12","county_fips":"12086","county":"Miami-Dade","tract":"003400","rural":false,"designated":true}},{"type":"Feature","geometry":{"type":"Polygon","coordinates":[[[-80.19473,25.79462],[-80.19621,25.78822],[-80.20693,25.78786],[-80.20708,25.7971],[-80.20303,25.79723],[-80.20304,25.7976],[-80.20046,25.79768],[-80.20038,25.79534],[-80.19446,25.79563],[-80.19473,25.79462]]]},"properties":{"geoid":"12086003100","state_fips":"12","county_fips":"12086","county":"Miami-Dade","tract":"003100","rural":false,"designated":true}},{"type":"Feature","geometry":{"type":"Polygon","coordinates":[[[-80.23316,25.81204],[-80.24042,25.81231],[-80.24077,25.82394],[-80.23267,25.82418],[-80.23292,25.82306],[-80.23254,25.82121],[-80.23217,25.81204],[-80.23316,25.81204]]]},"properties":{"geoid":"12086001803","state_fips":"12","county_fips":"12086","county":"Miami-Dade","tract":"001803","rural":false,"designated":true}},{"type":"Feature","geometry":{"type":"Polygon","coordinates":[[[-80.2417,25.84531],[-80.24111,25.83114],[-80.25918,25.83068],[-80.25962,25.84548],[-80.24175,25.84605],[-80.2417,25.84531]]]},"properties":{"geoid":"12086000903","state_fips":"12","county_fips":"12086","county":"Miami-Dade","tract":"000903","rural":false,"designated":true}},{"type":"Feature","geometry":{"type":"Polygon","coordinates":[[[-80.16398,25.91429],[-80.16348,25.91481],[-80.15773,25.91504],[-80.15926,25.90518],[-80.16043,25.90315],[-80.16313,25.90035],[-80.17881,25.89977],[-80.17599,25.90254],[-80.17625,25.9026],[-80.1762,25.90295],[-80.17565,25.90354],[-80.17497,25.90357],[-80.16398,25.91429]]]},"properties":{"geoid":"12086000209","state_fips":"12","county_fips":"12086","county":"Miami-Dade","tract":"000209","rural":false,"designated":true}},{"type":"Feature","geometry":{"type":"Polygon","coordinates":[[[-80.1735,25.9144],[-80.17554,25.91432],[-80.17604,25.92542],[-80.15425,25.92613],[-80.15773,25.91504],[-80.1735,25.9144]]]},"properties":{"geoid":"12086000206","state_fips":"12","county_fips":"12086","county":"Miami-Dade","tract":"000206","rural":false,"designated":true}},{"type":"Feature","geometry":{"type":"Polygon","coordinates":[[[-80.1425,25.90086],[-80.14233,25.90108],[-80.14632,25.90109],[-80.14908,25.90037],[-80.16009,25.89993],[-80.16313,25.90035],[-80.16043,25.90315],[-80.15917,25.90544],[-80.15782,25.91471],[-80.15425,25.92613],[-80.15058,25.92592],[-80.13988,25.9265],[-80.13324,25.92946],[-80.13213,25.92981],[-80.13042,25.92982],[-80.12996,25.92381],[-80.12931,25.92253],[-80.12667,25.91963],[-80.12677,25.91447],[-80.12856,25.90309],[-80.13051,25.89983],[-80.14187,25.90059],[-80.14186,25.90085],[-80.14257,25.90057],[-80.1425,25.90086]]]},"properties":{"geoid":"12086000109","state_fips":"12","county_fips":"12086","county":"Miami-Dade","tract":"000109","rural":false,"designated":true}},{"type":"Feature","geometry":{"type":"Polygon","coordinates":[[[-81.51143,28.65486],[-81.51345,28.65472],[-81.51345,28.65836],[-81.51756,28.65834],[-81.51776,28.66695],[-81.51916,28.66659],[-81.52054,28.66569],[-81.5217,28.66698],[-81.52166,28.67943],[-81.51197,28.67319],[-81.49279,28.67302],[-81.49286,28.65478],[-81.51143,28.65486]]]},"properties":{"geoid":"12095017600","state_fips":"12","county_fips":"12095","county":"Orange","tract":"017600","rural":false,"designated":true}},{"type":"Feature","geometry":{"type":"Polygon","coordinates":[[[-81.29432,28.5241],[-81.29423,28.52863],[-81.29638,28.52857],[-81.29639,28.52907],[-81.29462,28.52907],[-81.29465,28.53192],[-81.29421,28.53192],[-81.29426,28.53911],[-81.29299,28.53922],[-81.29299,28.53962],[-81.28903,28.53985],[-81.28579,28.54062],[-81.28557,28.52324],[-81.28591,28.52196],[-81.28901,28.51893],[-81.28964,28.51743],[-81.28973,28.5157],[-81.29429,28.51759],[-81.29432,28.5241]]]},"properties":{"geoid":"12095013402","state_fips":"12","county_fips":"12095","county":"Orange","tract":"013402","rural":false,"designated":true}},{"type":"Feature","geometry":{"type":"Polygon","coordinates":[[[-81.46764,28.57486],[-81.46776,28.57771],[-81.46008,28.57794],[-81.46015,28.56746],[-81.45993,28.56445],[-81.45946,28.5637],[-81.45942,28.5523],[-81.46765,28.55213],[-81.46764,28.57486]]]},"properties":{"geoid":"12095012202","state_fips":"12","county_fips":"12095","county":"Orange","tract":"012202","rural":false,"designated":true}},{"type":"Feature","geometry":{"type":"Polygon","coordinates":[[[-81.45994,28.56596],[-81.46008,28.57794],[-81.4515,28.57796],[-81.45147,28.57635],[-81.45219,28.5735],[-81.45212,28.56858],[-81.44994,28.56294],[-81.44975,28.56006],[-81.44763,28.55549],[-81.44753,28.55252],[-81.45942,28.5523],[-81.45946,28.5637],[-81.45993,28.56445],[-81.45994,28.56596]]]},"properties":{"geoid":"12095012100","state_fips":"12","county_fips":"12095","county":"Orange","tract":"012100","rural":false,"designated":true}},{"type":"Feature","geometry":{"type":"Polygon","coordinates":[[[-81.40249,28.61849],[-81.38663,28.61835],[-81.38647,28.60593],[-81.38745,28.60637],[-81.38905,28.60791],[-81.39087,28.60841],[-81.39226,28.60806],[-81.39412,28.60641],[-81.39536,28.60587],[-81.4017,28.60598],[-81.40391,28.60565],[-81.40622,28.6045],[-81.4106,28.60028],[-81.41125,28.60063],[-81.41184,28.60043],[-81.41686,28.59794],[-81.41963,28.60307],[-81.42189,28.60578],[-81.4242,28.60765],[-81.43233,28.61276],[-81.4262,28.61439],[-81.42525,28.61509],[-81.42077,28.6139],[-81.41912,28.61316],[-81.41495,28.61005],[-81.41494,28.61841],[-81.40249,28.61849]]]},"properties":{"geoid":"12095015202","state_fips":"12","county_fips":"12095","county":"Orange","tract":"015202","rural":false,"designated":true}},{"type":"Feature","geometry":{"type":"Polygon","coordinates":[[[-81.43922,28.52785],[-81.4339,28.52785],[-81.43067,28.52699],[-81.4261,28.52698],[-81.42593,28.50878],[-81.43616,28.50865],[-81.43663,28.51069],[-81.43791,28.5133],[-81.43797,28.51653],[-81.43718,28.51858],[-81.438,28.51857],[-81.43835,28.525],[-81.43974,28.525],[-81.44105,28.52632],[-81.44105,28.52696],[-81.44053,28.52784],[-81.43922,28.52785]]]},"properties":{"geoid":"12095014605","state_fips":"12","county_fips":"12095","county":"Orange","tract":"014605","rural":false,"designated":true}},{"type":"Feature","geometry":{"type":"Polygon","coordinates":[[[-81.41797,28.53347],[-81.418,28.53459],[-81.41415,28.53454],[-81.41345,28.53897],[-81.4137,28.54257],[-81.40535,28.53635],[-81.40548,28.53061],[-81.40697,28.52873],[-81.40752,28.52898],[-81.40856,28.52823],[-81.4118,28.52752],[-81.41406,28.52595],[-81.41563,28.52422],[-81.41695,28.5214],[-81.41819,28.52069],[-81.41629,28.51953],[-81.41942,28.51603],[-81.426,28.51588],[-81.4261,28.52698],[-81.41791,28.52686],[-81.41797,28.53347]]]},"properties":{"geoid":"12095011702","state_fips":"12","county_fips":"12095","county":"Orange","tract":"011702","rural":false,"designated":true}},{"type":"Feature","geometry":{"type":"Polygon","coordinates":[[[-81.39718,28.53519],[-81.38327,28.53524],[-81.38582,28.53107],[-81.39713,28.53112],[-81.39718,28.53519]]]},"properties":{"geoid":"12095010400","state_fips":"12","county_fips":"12095","county":"Orange","tract":"010400","rural":false,"designated":true}},{"type":"Feature","geometry":{"type":"Polygon","coordinates":[[[-81.3931,28.53521],[-81.39718,28.53519],[-81.39752,28.53561],[-81.3972,28.53651],[-81.39725,28.54016],[-81.38242,28.54025],[-81.38261,28.53767],[-81.38327,28.53524],[-81.3931,28.53521]]]},"properties":{"geoid":"12095010500","state_fips":"12","county_fips":"12095","county":"Orange","tract":"010500","rural":false,"designated":true}},{"type":"Feature","geometry":{"type":"Polygon","coordinates":[[[-81.30212,28.52179],[-81.30211,28.52048],[-81.31051,28.5236],[-81.31049,28.53317],[-81.30644,28.53317],[-81.30626,28.53174],[-81.30188,28.53172],[-81.30189,28.53234],[-81.29904,28.53236],[-81.29904,28.53189],[-81.29465,28.53192],[-81.29462,28.52907],[-81.29639,28.52907],[-81.29638,28.52857],[-81.29808,28.52858],[-81.29823,28.52528],[-81.29787,28.52454],[-81.30205,28.52456],[-81.30214,28.52351],[-81.30143,28.52352],[-81.30142,28.52263],[-81.30212,28.52259],[-81.30212,28.52179]]]},"properties":{"geoid":"12095013406","state_fips":"12","county_fips":"12095","county":"Orange","tract":"013406","rural":false,"designated":true}},{"type":"Feature","geometry":{"type":"Polygon","coordinates":[[[-81.42243,28.59629],[-81.42339,28.59628],[-81.42336,28.59385],[-81.42378,28.59286],[-81.42503,28.59178],[-81.42724,28.59156],[-81.42743,28.58996],[-81.42791,28.58952],[-81.43778,28.58975],[-81.43844,28.5901],[-81.43848,28.59248],[-81.43661,28.59447],[-81.43702,28.59632],[-81.43688,28.59745],[-81.43569,28.59963],[-81.43455,28.60074],[-81.43525,28.60186],[-81.43446,28.61267],[-81.43233,28.61276],[-81.42907,28.61083],[-81.42303,28.60679],[-81.42014,28.60379],[-81.41608,28.59644],[-81.42243,28.59629]]]},"properties":{"geoid":"12095012402","state_fips":"12","county_fips":"12095","county":"Orange","tract":"012402","rural":false,"designated":true}},{"type":"Feature","geometry":{"type":"Polygon","coordinates":[[[-81.43781,28.56021],[-81.43781,28.55972],[-81.43945,28.55971],[-81.44094,28.55858],[-81.44273,28.5559],[-81.44278,28.55255],[-81.44753,28.55252],[-81.44763,28.55549],[-81.44975,28.56006],[-81.44994,28.56294],[-81.45212,28.56858],[-81.45219,28.5735],[-81.45147,28.57635],[-81.4515,28.57796],[-81.43443,28.57803],[-81.43479,28.57243],[-81.43761,28.56919],[-81.43707,28.56743],[-81.43789,28.56293],[-81.43781,28.56021]]]},"properties":{"geoid":"12095012000","state_fips":"12","county_fips":"12095","county":"Orange","tract":"012000","rural":false,"designated":true}},{"type":"Feature","geometry":{"type":"Polygon","coordinates":[[[-81.48042,28.55829],[-81.4798,28.55785],[-81.47799,28.55785],[-81.47761,28.55807],[-81.47708,28.55924],[-81.4759,28.55936],[-81.4759,28.55209],[-81.50491,28.5519],[-81.50493,28.55923],[-81.4851,28.55931],[-81.4832,28.55886],[-81.48117,28.55883],[-81.48042,28.55829]]]},"properties":{"geoid":"12095014904","state_fips":"12","county_fips":"12095","county":"Orange","tract":"014904","rural":false,"designated":true}},{"type":"Feature","geometry":{"type":"Polygon","coordinates":[[[-81.43443,28.53895],[-81.43477,28.54732],[-81.43376,28.5477],[-81.42959,28.54594],[-81.42099,28.54588],[-81.41875,28.54554],[-81.41658,28.54466],[-81.4137,28.54257],[-81.41345,28.53897],[-81.41415,28.53454],[-81.418,28.53459],[-81.41791,28.52686],[-81.43045,28.52697],[-81.43303,28.52771],[-81.43291,28.52789],[-81.43433,28.52915],[-81.43443,28.53895]]]},"properties":{"geoid":"12095011701","state_fips":"12","county_fips":"12095","county":"Orange","tract":"011701","rural":false,"designated":true}},{"type":"Feature","geometry":{"type":"Polygon","coordinates":[[[-81.47609,28.58447],[-81.47607,28.5776],[-81.49682,28.57753],[-81.49682,28.59337],[-81.49263,28.5934],[-81.49253,28.5917],[-81.48958,28.59068],[-81.48884,28.59123],[-81.48604,28.59106],[-81.48378,28.59173],[-81.48188,28.59099],[-81.47931,28.59192],[-81.47835,28.59134],[-81.47607,28.5911],[-81.47609,28.58447]]]},"properties":{"geoid":"12095012304","state_fips":"12","county_fips":"12095","county":"Orange","tract":"012304","rural":false,"designated":true}},{"type":"Feature","geometry":{"type":"Polygon","coordinates":[[[-81.37467,28.61173],[-81.36535,28.61181],[-81.36521,28.60596],[-81.38647,28.60593],[-81.38664,28.62102],[-81.37568,28.62078],[-81.37571,28.61384],[-81.37533,28.61171],[-81.37467,28.61173]]]},"properties":{"geoid":"12095018000","state_fips":"12","county_fips":"12095","county":"Orange","tract":"018000","rural":false,"designated":true}},{"type":"Feature","geometry":{"type":"Polygon","coordinates":[[[-81.43991,28.54555],[-81.4433,28.54479],[-81.44709,28.54218],[-81.44759,28.54306],[-81.44753,28.55252],[-81.43557,28.55261],[-81.43423,28.55297],[-81.43417,28.55262],[-81.39566,28.55295],[-81.39598,28.5519],[-81.39706,28.55061],[-81.39737,28.54968],[-81.3972,28.53651],[-81.39752,28.53561],[-81.39718,28.53519],[-81.40199,28.53527],[-81.40493,28.53615],[-81.41554,28.54399],[-81.41875,28.54554],[-81.42099,28.54588],[-81.42959,28.54594],[-81.43376,28.5477],[-81.43991,28.54555]]]},"properties":{"geoid":"12095018300","state_fips":"12","county_fips":"12095","county":"Orange","tract":"018300","rural":false,"designated":true}},{"type":"Feature","geometry":{"type":"Polygon","coordinates":[[[-81.33918,28.53837],[-81.34359,28.53837],[-81.34371,28.54602],[-81.36433,28.5458],[-81.36445,28.55316],[-81.32288,28.55343],[-81.31857,28.55408],[-81.3159,28.55483],[-81.31328,28.55589],[-81.31089,28.55738],[-81.31057,28.5395],[-81.31994,28.53984],[-81.32947,28.53838],[-81.33918,28.53837]]]},"properties":{"geoid":"12095018400","state_fips":"12","county_fips":"12095","county":"Orange","tract":"018400","rural":false,"designated":true}},{"type":"Feature","geometry":{"type":"Polygon","coordinates":[[[-81.39697,28.51056],[-81.39713,28.53112],[-81.37653,28.53116],[-81.37632,28.51292],[-81.38374,28.5129],[-81.38439,28.51322],[-81.38481,28.51417],[-81.38583,28.51461],[-81.39014,28.51466],[-81.396,28.51058],[-81.39696,28.5101],[-81.39697,28.51056]]]},"properties":{"geoid":"12095018500","state_fips":"12","county_fips":"12095","county":"Orange","tract":"018500","rural":false,"designated":true}},{"type":"Feature","geometry":{"type":"Polygon","coordinates":[[[-81.44287,28.52784],[-81.44053,28.52784],[-81.44105,28.52696],[-81.44102,28.52626],[-81.43974,28.525],[-81.43835,28.525],[-81.438,28.51857],[-81.43851,28.51856],[-81.43849,28.51586],[-81.45471,28.51567],[-81.45478,28.51911],[-81.45525,28.5191],[-81.45524,28.52145],[-81.45566,28.52097],[-81.45723,28.52111],[-81.45915,28.52077],[-81.45927,28.52799],[-81.45692,28.52768],[-81.44287,28.52784]]]},"properties":{"geoid":"12095014608","state_fips":"12","county_fips":"12095","county":"Orange","tract":"014608","rural":false,"designated":true}},{"type":"Feature","geometry":{"type":"Polygon","coordinates":[[[-81.46781,28.58458],[-81.46788,28.59615],[-81.45141,28.59635],[-81.45152,28.58744],[-81.45125,28.58582],[-81.45155,28.58438],[-81.4515,28.57796],[-81.46776,28.57771],[-81.46781,28.58458]]]},"properties":{"geoid":"12095012307","state_fips":"12","county_fips":"12095","county":"Orange","tract":"012307","rural":false,"designated":true}},{"type":"Feature","geometry":{"type":"Polygon","coordinates":[[[-81.46784,28.58638],[-81.46776,28.57771],[-81.47607,28.5776],[-81.47618,28.61373],[-81.4705,28.6124],[-81.46781,28.61096],[-81.46784,28.58638]]]},"properties":{"geoid":"12095012305","state_fips":"12","county_fips":"12095","county":"Orange","tract":"012305","rural":false,"designated":true}},{"type":"Feature","geometry":{"type":"Polygon","coordinates":[[[-81.43877,28.55971],[-81.43781,28.55972],[-81.43789,28.56293],[-81.43707,28.56743],[-81.43761,28.56919],[-81.43479,28.57243],[-81.43443,28.57803],[-81.40704,28.57805],[-81.40694,28.57527],[-81.40604,28.57284],[-81.40265,28.56733],[-81.39971,28.56392],[-81.39589,28.55757],[-81.39564,28.55297],[-81.43409,28.55262],[-81.43423,28.55297],[-81.43557,28.55261],[-81.44278,28.55255],[-81.44273,28.5559],[-81.44094,28.55858],[-81.43945,28.55971],[-81.43877,28.55971]]]},"properties":{"geoid":"12095018700","state_fips":"12","county_fips":"12095","county":"Orange","tract":"018700","rural":false,"designated":true}},{"type":"Feature","geometry":{"type":"Polygon","coordinates":[[[-81.22376,28.55789],[-81.22376,28.55381],[-81.22475,28.5506],[-81.22224,28.54436],[-81.2277,28.54043],[-81.22988,28.53955],[-81.24421,28.53937],[-81.24447,28.54943],[-81.23702,28.54948],[-81.23463,28.54977],[-81.23086,28.5493],[-81.22942,28.54961],[-81.22791,28.55054],[-81.2281,28.55582],[-81.22861,28.55583],[-81.22863,28.55749],[-81.22948,28.55747],[-81.22906,28.55873],[-81.22919,28.56936],[-81.22396,28.56875],[-81.22376,28.55789]]]},"properties":{"geoid":"12095016724","state_fips":"12","county_fips":"12095","county":"Orange","tract":"016724","rural":false,"designated":true}}],"vintage":"2018 designations (in effect through 12/31/2028)","source":"HUD Opportunity Zones (spatial representation of Treasury/IRS designated QOZ tracts)","source_url":"https://hudgis-hud.opendata.arcgis.com/datasets/opportunity-zones","retrieved":"2026-09-06","unit":"designated (boolean)"}
