{"type":"FeatureCollection","features":[{"type":"Feature","geometry":{"type":"Polygon","coordinates":[[[-80.09178,25.72111],[-80.08641,25.72519],[-80.0828,25.72862],[-80.07714,25.73568],[-80.07248,25.74459],[-80.07061,25.75042],[-80.06962,25.75566],[-80.06924,25.76172],[-80.06958,25.76703],[-80.07048,25.77209],[-80.07262,25.77928],[-80.07156,25.78552],[-80.06815,25.79661],[-80.06696,25.80239],[-80.06499,25.82206],[-80.06426,25.83929],[-80.06327,25.84412],[-80.0628,25.84959],[-80.06307,25.85602],[-80.06458,25.86725],[-80.06473,25.87458],[-80.06572,25.88124],[-80.0656,25.89019],[-80.0644,25.89537],[-80.06378,25.90158],[-80.06403,25.908],[-80.06543,25.91523],[-80.06399,25.9204],[-80.06303,25.92757],[-80.06316,25.93423],[-80.06421,25.94081],[-80.06313,25.95356],[-80.06284,25.96802],[-80.06335,25.9744],[-80.06289,25.97681],[-80.12331,25.9751],[-80.12375,25.97508],[-80.12387,25.97448],[-80.13315,25.97412],[-80.13386,25.97411],[-80.13398,25.97487],[-80.16647,25.97358],[-80.29519,25.97057],[-80.29497,25.95677],[-80.31077,25.95717],[-80.68002,25.95686],[-80.68004,25.97875],[-80.87293,25.97943],[-80.8736,25.9083],[-80.87301,25.75038],[-80.87349,25.48409],[-80.87319,25.36399],[-80.86219,25.36419],[-80.86199,25.2429],[-80.85799,25.243],[-80.85817,25.17661],[-80.85168,25.17732],[-80.84641,25.17707],[-80.8453,25.17635],[-80.84179,25.17626],[-80.83822,25.17479],[-80.83421,25.17268],[-80.83002,25.16811],[-80.82874,25.16612],[-80.82825,25.1637],[-80.82718,25.16204],[-80.82716,25.16091],[-80.82574,25.16055],[-80.82136,25.16286],[-80.81416,25.16542],[-80.81039,25.16785],[-80.80956,25.16905],[-80.80926,25.17219],[-80.81044,25.17458],[-80.81303,25.17607],[-80.81333,25.18004],[-80.81368,25.18174],[-80.81442,25.18274],[-80.81356,25.18297],[-80.81323,25.18251],[-80.8123,25.1833],[-80.80958,25.18387],[-80.80937,25.18336],[-80.81205,25.18059],[-80.81147,25.1799],[-80.80837,25.18155],[-80.80814,25.18306],[-80.80859,25.1838],[-80.80819,25.18421],[-80.80554,25.18354],[-80.80292,25.182],[-80.79786,25.18122],[-80.79529,25.17946],[-80.7939,25.17624],[-80.79481,25.17501],[-80.79776,25.16659],[-80.80013,25.16319],[-80.80112,25.15661],[-80.80256,25.15287],[-80.8007,25.14865],[-80.80106,25.14356],[-80.80053,25.14299],[-80.79989,25.14333],[-80.79795,25.14672],[-80.79858,25.15177],[-80.7984,25.15636],[-80.79729,25.1598],[-80.7958,25.16211],[-80.79242,25.16445],[-80.78723,25.16443],[-80.78221,25.16527],[-80.78022,25.16472],[-80.77806,25.16254],[-80.77692,25.16073],[-80.77584,25.15664],[-80.77411,25.15423],[-80.77275,25.15059],[-80.77257,25.14829],[-80.77354,25.1443],[-80.7784,25.13864],[-80.77802,25.1377],[-80.77709,25.13742],[-80.77147,25.14044],[-80.769,25.14682],[-80.76879,25.15008],[-80.77015,25.15152],[-80.77053,25.15393],[-80.77237,25.1565],[-80.77219,25.1598],[-80.7711,25.16098],[-80.76596,25.16228],[-80.76102,25.16158],[-80.75746,25.1604],[-80.75538,25.15916],[-80.75495,25.15651],[-80.75631,25.15271],[-80.75456,25.15135],[-80.75271,25.1519],[-80.75145,25.15139],[-80.74875,25.14809],[-80.74575,25.14605],[-80.74416,25.14365],[-80.74293,25.14265],[-80.74057,25.14248],[-80.73491,25.14365],[-80.73062,25.14306],[-80.72773,25.1449],[-80.72155,25.1455],[-80.72125,25.14621],[-80.72236,25.14751],[-80.72637,25.14982],[-80.72857,25.15028],[-80.73099,25.15292],[-80.7362,25.15212],[-80.73847,25.15081],[-80.73943,25.15108],[-80.74374,25.1539],[-80.74452,25.15594],[-80.7472,25.15871],[-80.74728,25.16482],[-80.74592,25.16539],[-80.74244,25.16402],[-80.74107,25.16237],[-80.73883,25.16161],[-80.73727,25.15907],[-80.73568,25.16058],[-80.73419,25.16097],[-80.73069,25.15965],[-80.72991,25.15976],[-80.72926,25.16361],[-80.72999,25.16513],[-80.73198,25.16719],[-80.7317,25.16744],[-80.72876,25.16703],[-80.72553,25.16577],[-80.72308,25.16155],[-80.723,25.15933],[-80.72592,25.15667],[-80.72726,25.15373],[-80.72721,25.15288],[-80.72617,25.15256],[-80.72161,25.15486],[-80.71788,25.15566],[-80.71733,25.15539],[-80.71486,25.15337],[-80.7139,25.1519],[-80.71297,25.15154],[-80.71185,25.15201],[-80.7109,25.15138],[-80.71022,25.14892],[-80.70875,25.14683],[-80.70799,25.14131],[-80.70697,25.14004],[-80.70645,25.13978],[-80.70406,25.14042],[-80.70323,25.14145],[-80.70321,25.14383],[-80.70467,25.14512],[-80.70538,25.14902],[-80.70352,25.15273],[-80.70027,25.15335],[-80.69759,25.15443],[-80.6986,25.15904],[-80.69861,25.16184],[-80.69785,25.16294],[-80.69614,25.16384],[-80.69317,25.16728],[-80.69027,25.16852],[-80.6881,25.16887],[-80.68679,25.17017],[-80.68465,25.17102],[-80.68379,25.17233],[-80.682,25.17281],[-80.68105,25.17437],[-80.68024,25.17456],[-80.67845,25.1746],[-80.67752,25.17286],[-80.67812,25.16896],[-80.68001,25.16655],[-80.68044,25.16479],[-80.67965,25.16403],[-80.67807,25.16394],[-80.67522,25.16678],[-80.67232,25.16749],[-80.67401,25.16885],[-80.67406,25.17002],[-80.67341,25.17112],[-80.67326,25.1739],[-80.67169,25.17458],[-80.66799,25.17082],[-80.66801,25.16995],[-80.6699,25.16763],[-80.66983,25.16704],[-80.6662,25.16667],[-80.66451,25.16736],[-80.66191,25.16738],[-80.65891,25.16901],[-80.6578,25.16913],[-80.65632,25.16693],[-80.65357,25.16465],[-80.65306,25.16287],[-80.65661,25.15628],[-80.66191,25.15401],[-80.6642,25.15137],[-80.66564,25.15087],[-80.66586,25.14965],[-80.66755,25.14772],[-80.66929,25.14658],[-80.67092,25.14415],[-80.67458,25.14224],[-80.67511,25.14027],[-80.6745,25.13882],[-80.67309,25.13859],[-80.66906,25.14213],[-80.66775,25.14229],[-80.66405,25.14144],[-80.65916,25.14263],[-80.65833,25.14341],[-80.65863,25.14523],[-80.65797,25.1466],[-80.65712,25.14628],[-80.65739,25.14525],[-80.65666,25.14493],[-80.65228,25.14658],[-80.65245,25.14732],[-80.65593,25.14938],[-80.65641,25.15429],[-80.65533,25.15575],[-80.65162,25.15675],[-80.65094,25.15744],[-80.65178,25.16212],[-80.6499,25.16735],[-80.64752,25.1715],[-80.64507,25.1747],[-80.64028,25.17666],[-80.63547,25.17594],[-80.63363,25.17633],[-80.63552,25.1784],[-80.63807,25.17856],[-80.64306,25.1781],[-80.64457,25.1772],[-80.65165,25.17534],[-80.65579,25.17585],[-80.65795,25.1775],[-80.65919,25.17475],[-80.6609,25.17447],[-80.66244,25.17498],[-80.66426,25.17741],[-80.66398,25.17949],[-80.66086,25.18197],[-80.6599,25.18443],[-80.65937,25.18477],[-80.65428,25.1848],[-80.65433,25.18821],[-80.65274,25.18961],[-80.65244,25.19145],[-80.65163,25.19248],[-80.64828,25.19216],[-80.6475,25.19143],[-80.64712,25.18952],[-80.64419,25.19069],[-80.63885,25.19088],[-80.63651,25.19257],[-80.63424,25.19237],[-80.63368,25.19416],[-80.63111,25.19533],[-80.63076,25.19698],[-80.62945,25.19771],[-80.62824,25.19748],[-80.62531,25.195],[-80.6242,25.19546],[-80.624,25.19778],[-80.62254,25.19918],[-80.62125,25.1992],[-80.61959,25.19758],[-80.61828,25.19895],[-80.61606,25.19971],[-80.6149,25.20072],[-80.61109,25.20072],[-80.60993,25.20026],[-80.60945,25.20173],[-80.60852,25.20273],[-80.60681,25.2031],[-80.60492,25.20273],[-80.60394,25.20093],[-80.60572,25.19672],[-80.60572,25.1948],[-80.60411,25.19314],[-80.60326,25.19058],[-80.60409,25.18888],[-80.60746,25.18782],[-80.60973,25.18592],[-80.60908,25.18424],[-80.60958,25.18285],[-80.61296,25.18202],[-80.61427,25.18255],[-80.61972,25.18294],[-80.62146,25.1836],[-80.62269,25.18269],[-80.62519,25.18255],[-80.62408,25.18136],[-80.62184,25.18031],[-80.62128,25.18115],[-80.61962,25.182],[-80.6178,25.18046],[-80.61924,25.17801],[-80.61901,25.17736],[-80.61725,25.17634],[-80.61445,25.17578],[-80.61211,25.17789],[-80.612,25.17892],[-80.61022,25.1803],[-80.60924,25.1826],[-80.60801,25.18363],[-80.6064,25.18638],[-80.59865,25.18922],[-80.5958,25.18959],[-80.59462,25.19037],[-80.59402,25.19147],[-80.59417,25.19516],[-80.59284,25.19723],[-80.59279,25.19805],[-80.59158,25.19925],[-80.58762,25.20069],[-80.58384,25.20056],[-80.58341,25.20119],[-80.58374,25.20314],[-80.58328,25.20523],[-80.58414,25.20745],[-80.58245,25.20812],[-80.58298,25.20961],[-80.58237,25.21055],[-80.57985,25.21172],[-80.5771,25.21208],[-80.57456,25.21007],[-80.57229,25.21078],[-80.57072,25.21029],[-80.5684,25.21155],[-80.56548,25.20958],[-80.56354,25.20717],[-80.56382,25.20508],[-80.56508,25.20414],[-80.56901,25.20417],[-80.56957,25.2007],[-80.57126,25.19853],[-80.57325,25.19818],[-80.57461,25.19867],[-80.57642,25.20358],[-80.57706,25.20319],[-80.57723,25.20222],[-80.57721,25.20075],[-80.57497,25.19798],[-80.57275,25.19715],[-80.56879,25.19316],[-80.56539,25.19265],[-80.56552,25.19511],[-80.56392,25.19702],[-80.55855,25.1993],[-80.55931,25.20444],[-80.56225,25.2105],[-80.56235,25.21169],[-80.56195,25.21219],[-80.55796,25.21164],[-80.55534,25.21254],[-80.55383,25.21398],[-80.55176,25.21363],[-80.54919,25.21405],[-80.54821,25.2121],[-80.5496,25.20863],[-80.54793,25.20618],[-80.54564,25.20498],[-80.5435,25.20619],[-80.54116,25.2057],[-80.53785,25.20143],[-80.53657,25.20072],[-80.53584,25.19892],[-80.53571,25.20103],[-80.53681,25.20171],[-80.53865,25.2041],[-80.53805,25.2058],[-80.53893,25.20619],[-80.53931,25.20743],[-80.54067,25.20865],[-80.54062,25.21145],[-80.53963,25.21351],[-80.5383,25.21429],[-80.53262,25.2139],[-80.53091,25.21484],[-80.52907,25.21351],[-80.52919,25.21479],[-80.52859,25.21694],[-80.52657,25.21788],[-80.52483,25.21958],[-80.5243,25.22116],[-80.51918,25.22238],[-80.51714,25.22065],[-80.51565,25.2204],[-80.51464,25.21955],[-80.51454,25.21856],[-80.5154,25.21739],[-80.51401,25.21794],[-80.51063,25.21606],[-80.50953,25.21227],[-80.50847,25.21177],[-80.50719,25.21012],[-80.50689,25.20855],[-80.50813,25.20651],[-80.50616,25.20704],[-80.50487,25.20658],[-80.50379,25.20564],[-80.50311,25.20314],[-80.50157,25.20367],[-80.50026,25.20481],[-80.50049,25.20224],[-80.49929,25.2008],[-80.49798,25.19993],[-80.49533,25.1995],[-80.49607,25.20285],[-80.49557,25.20532],[-80.49869,25.20813],[-80.50053,25.20839],[-80.50134,25.20961],[-80.5006,25.21119],[-80.49888,25.2111],[-80.49782,25.20892],[-80.49696,25.20835],[-80.49585,25.20854],[-80.4957,25.20663],[-80.49491,25.20645],[-80.49469,25.20748],[-80.49426,25.2076],[-80.49355,25.20705],[-80.49385,25.20606],[-80.49277,25.20558],[-80.49214,25.20597],[-80.49218,25.2075],[-80.49053,25.20782],[-80.48816,25.20671],[-80.48722,25.20713],[-80.48818,25.20957],[-80.48703,25.21231],[-80.48874,25.21249],[-80.4892,25.21343],[-80.49023,25.21301],[-80.49182,25.21347],[-80.495,25.21629],[-80.49467,25.21833],[-80.49498,25.22019],[-80.49445,25.22131],[-80.49604,25.22273],[-80.49604,25.224],[-80.49418,25.22712],[-80.4907,25.22728],[-80.48916,25.22882],[-80.48732,25.22873],[-80.4854,25.22671],[-80.485,25.22552],[-80.48247,25.22488],[-80.48041,25.22823],[-80.47718,25.22958],[-80.47587,25.2308],[-80.47448,25.23062],[-80.47267,25.22856],[-80.47085,25.23041],[-80.46863,25.23005],[-80.46821,25.2336],[-80.46715,25.23473],[-80.46468,25.23489],[-80.46382,25.2359],[-80.46079,25.23682],[-80.45905,25.23652],[-80.45686,25.2351],[-80.45633,25.23519],[-80.45744,25.23684],[-80.45653,25.23882],[-80.45522,25.23912],[-80.45341,25.23836],[-80.45066,25.24024],[-80.44897,25.24075],[-80.44445,25.2399],[-80.44551,25.24116],[-80.4456,25.24273],[-80.44421,25.2442],[-80.44143,25.24394],[-80.43931,25.24251],[-80.43899,25.24122],[-80.44001,25.23943],[-80.4381,25.23978],[-80.43694,25.24065],[-80.43523,25.24063],[-80.43523,25.23923],[-80.43473,25.23837],[-80.43564,25.23819],[-80.43549,25.2373],[-80.43646,25.23623],[-80.43627,25.23576],[-80.43426,25.23595],[-80.43285,25.23676],[-80.42931,25.23566],[-80.42688,25.23641],[-80.41887,25.23631],[-80.41865,25.24475],[-80.41095,25.25347],[-80.39493,25.25354],[-80.39508,25.27294],[-80.37915,25.28786],[-80.3794,25.29683],[-80.37902,25.30589],[-80.37198,25.30593],[-80.37212,25.31022],[-80.34155,25.32245],[-80.26547,25.3543],[-80.26237,25.35399],[-80.25648,25.35069],[-80.2537,25.34461],[-80.25158,25.34233],[-80.25022,25.33937],[-80.18387,25.34818],[-80.18369,25.34953],[-80.17656,25.36687],[-80.17244,25.37092],[-80.16698,25.37529],[-80.16241,25.37994],[-80.1581,25.38573],[-80.15291,25.39466],[-80.14977,25.40287],[-80.1487,25.4077],[-80.14812,25.41345],[-80.14081,25.42781],[-80.1391,25.4331],[-80.13161,25.43489],[-80.12437,25.43776],[-80.11709,25.44182],[-80.11143,25.44605],[-80.10541,25.45211],[-80.10065,25.45881],[-80.09838,25.46309],[-80.09552,25.47103],[-80.09414,25.47925],[-80.09401,25.48569],[-80.09506,25.49339],[-80.09693,25.49961],[-80.10081,25.50756],[-80.1055,25.51407],[-80.11033,25.51901],[-80.11515,25.52287],[-80.11557,25.52666],[-80.11281,25.53515],[-80.11167,25.5403],[-80.10602,25.55361],[-80.104,25.56187],[-80.10354,25.57074],[-80.10527,25.58119],[-80.10451,25.58798],[-80.10476,25.59461],[-80.10565,25.59985],[-80.10777,25.60663],[-80.10373,25.64885],[-80.10045,25.65621],[-80.0988,25.66226],[-80.09787,25.66842],[-80.09779,25.67611],[-80.09886,25.68422],[-80.09557,25.69211],[-80.09389,25.69856],[-80.09178,25.72111]]]},"properties":{"county":"Miami-Dade","county_fips":"12086","pop_2023":2774250,"pop_2024":2838461,"population_change":64211,"growth_rate":0.02315,"births":29253,"deaths":21284,"natural_increase":7969,"international_migration":123835,"domestic_migration":-67418,"net_migration":56417,"under_18":540695}},{"type":"Feature","geometry":{"type":"Polygon","coordinates":[[[-80.19084,25.97323],[-80.16647,25.97358],[-80.13398,25.97487],[-80.13386,25.97411],[-80.13315,25.97412],[-80.12387,25.97448],[-80.12375,25.97508],[-80.12331,25.9751],[-80.06289,25.97681],[-80.06107,25.98846],[-80.06022,26.00606],[-80.05735,26.0417],[-80.05588,26.05354],[-80.05453,26.07312],[-80.05129,26.08155],[-80.04954,26.09011],[-80.04928,26.09541],[-80.04969,26.10106],[-80.04873,26.10757],[-80.04851,26.11703],[-80.04654,26.13855],[-80.04279,26.15869],[-80.04139,26.17079],[-80.03939,26.17622],[-80.03787,26.18329],[-80.03748,26.18917],[-80.03811,26.19674],[-80.03645,26.20348],[-80.03563,26.20949],[-80.03417,26.21671],[-80.03132,26.22566],[-80.03042,26.23245],[-80.02717,26.2396],[-80.02505,26.24787],[-80.02359,26.27221],[-80.02208,26.28878],[-80.01528,26.32096],[-80.0879,26.32076],[-80.0889,26.32238],[-80.08913,26.32469],[-80.09197,26.32636],[-80.09289,26.32626],[-80.09488,26.32499],[-80.09643,26.3224],[-80.09862,26.32269],[-80.09913,26.3238],[-80.0984,26.32488],[-80.09836,26.3265],[-80.09898,26.3275],[-80.09999,26.32778],[-80.20408,26.32782],[-80.29705,26.35555],[-80.29699,26.33436],[-80.5399,26.3347],[-80.62808,26.33417],[-80.88128,26.33381],[-80.87971,26.25931],[-80.87936,26.18005],[-80.87256,26.00147],[-80.87293,25.97943],[-80.68004,25.97875],[-80.68002,25.95686],[-80.31077,25.95717],[-80.29497,25.95677],[-80.29519,25.97057],[-80.19084,25.97323]]]},"properties":{"county":"Broward","county_fips":"12011","pop_2023":2002786,"pop_2024":2037472,"population_change":34686,"growth_rate":0.01732,"births":20764,"deaths":16251,"natural_increase":4513,"international_migration":56567,"domestic_migration":-26339,"net_migration":30228,"under_18":406732}},{"type":"Feature","geometry":{"type":"Polygon","coordinates":[[[-81.15781,28.61223],[-81.26185,28.6115],[-81.32789,28.6105],[-81.32848,28.63963],[-81.36163,28.63933],[-81.36187,28.64041],[-81.45973,28.6402],[-81.45952,28.71326],[-81.45795,28.71432],[-81.45066,28.71433],[-81.4486,28.71533],[-81.44762,28.71523],[-81.44648,28.71373],[-81.44561,28.71362],[-81.44142,28.7151],[-81.44067,28.71582],[-81.441,28.71586],[-81.43944,28.71909],[-81.4382,28.72058],[-81.43623,28.7218],[-81.43164,28.72705],[-81.43123,28.72859],[-81.42688,28.73375],[-81.42504,28.73524],[-81.42376,28.73534],[-81.42277,28.73691],[-81.42188,28.73974],[-81.42116,28.74054],[-81.42165,28.74095],[-81.42154,28.74455],[-81.41847,28.75463],[-81.4165,28.75532],[-81.41633,28.75841],[-81.41567,28.75975],[-81.41521,28.76367],[-81.41583,28.76447],[-81.41564,28.7665],[-81.41637,28.76952],[-81.41563,28.7724],[-81.41583,28.77338],[-81.41485,28.77487],[-81.41469,28.77704],[-81.41535,28.77858],[-81.41513,28.78026],[-81.41558,28.78248],[-81.41517,28.78441],[-81.41445,28.78496],[-81.41457,28.78556],[-81.46126,28.78566],[-81.47737,28.78619],[-81.64651,28.78587],[-81.64781,28.78413],[-81.646,28.78181],[-81.64474,28.77598],[-81.64517,28.77268],[-81.64651,28.76987],[-81.64896,28.76695],[-81.65119,28.76593],[-81.65372,28.7663],[-81.65413,28.76679],[-81.65396,28.76754],[-81.65597,28.769],[-81.65639,28.76983],[-81.6586,28.76644],[-81.6585,28.67955],[-81.65693,28.6078],[-81.6572,28.59257],[-81.65346,28.59045],[-81.64973,28.58684],[-81.6481,28.58448],[-81.64886,28.58265],[-81.65063,28.58195],[-81.65188,28.58051],[-81.65206,28.57722],[-81.6514,28.57512],[-81.65266,28.57114],[-81.6572,28.56983],[-81.65759,28.49245],[-81.65727,28.3471],[-81.48749,28.34709],[-81.45775,28.34728],[-81.45775,28.34785],[-81.44388,28.34798],[-81.31953,28.34813],[-81.12519,28.34819],[-81.02318,28.34769],[-80.99978,28.34858],[-80.94907,28.34769],[-80.86291,28.34749],[-80.86671,28.35032],[-80.86865,28.35247],[-80.87358,28.36058],[-80.87382,28.36411],[-80.87239,28.36765],[-80.8731,28.37026],[-80.87558,28.37342],[-80.87669,28.3733],[-80.87783,28.37222],[-80.87929,28.3724],[-80.8803,28.37369],[-80.88014,28.37513],[-80.8815,28.37459],[-80.88193,28.37485],[-80.88186,28.37548],[-80.87952,28.37715],[-80.8796,28.38042],[-80.88144,28.38062],[-80.8859,28.38502],[-80.88848,28.38559],[-80.88785,28.38801],[-80.88962,28.39301],[-80.88749,28.39396],[-80.88679,28.39654],[-80.88513,28.39581],[-80.88451,28.39613],[-80.88451,28.39827],[-80.88665,28.39961],[-80.8855,28.4024],[-80.88649,28.40413],[-80.8849,28.40643],[-80.8832,28.40645],[-80.88299,28.40816],[-80.88475,28.40867],[-80.8849,28.41075],[-80.88807,28.413],[-80.88802,28.41569],[-80.89107,28.41619],[-80.89219,28.41837],[-80.89416,28.41914],[-80.89471,28.4192],[-80.89507,28.418],[-80.89637,28.4185],[-80.89654,28.41892],[-80.89589,28.4196],[-80.89642,28.4206],[-80.89555,28.42069],[-80.89576,28.42312],[-80.89687,28.42327],[-80.89638,28.42496],[-80.89809,28.42541],[-80.8987,28.42614],[-80.89706,28.42641],[-80.89677,28.42781],[-80.89845,28.43192],[-80.89899,28.43093],[-80.89926,28.43219],[-80.90034,28.43159],[-80.90127,28.43354],[-80.89957,28.43337],[-80.89893,28.43468],[-80.8969,28.43551],[-80.89823,28.4364],[-80.89699,28.43649],[-80.89671,28.43734],[-80.89515,28.43645],[-80.89426,28.43786],[-80.89468,28.43867],[-80.89405,28.44096],[-80.89308,28.44175],[-80.89399,28.44274],[-80.89389,28.44386],[-80.89294,28.44457],[-80.89103,28.44469],[-80.89012,28.44541],[-80.89203,28.4492],[-80.8939,28.45076],[-80.89586,28.45126],[-80.89732,28.453],[-80.89697,28.45466],[-80.89835,28.45508],[-80.89836,28.45616],[-80.89757,28.45776],[-80.89663,28.4566],[-80.89581,28.45796],[-80.8941,28.45802],[-80.89336,28.45904],[-80.89332,28.46002],[-80.89444,28.45984],[-80.89496,28.46038],[-80.89481,28.46195],[-80.89585,28.4632],[-80.89545,28.46365],[-80.89453,28.46308],[-80.89382,28.46319],[-80.89286,28.46403],[-80.89287,28.46497],[-80.89414,28.4646],[-80.89461,28.46532],[-80.89452,28.46704],[-80.89081,28.46838],[-80.89095,28.46688],[-80.88977,28.46649],[-80.88714,28.4686],[-80.88666,28.46961],[-80.88475,28.46872],[-80.88422,28.46954],[-80.88229,28.46961],[-80.88168,28.47037],[-80.88098,28.46957],[-80.88083,28.46833],[-80.87967,28.46832],[-80.87937,28.46968],[-80.87605,28.47088],[-80.8755,28.46993],[-80.87638,28.46941],[-80.87514,28.46884],[-80.87284,28.47107],[-80.87129,28.47076],[-80.8708,28.47136],[-80.87419,28.47634],[-80.87407,28.47792],[-80.87315,28.47855],[-80.87394,28.48022],[-80.87332,28.48206],[-80.87529,28.48355],[-80.87558,28.48585],[-80.87811,28.48673],[-80.87733,28.48797],[-80.87527,28.4887],[-80.87524,28.48949],[-80.87587,28.49007],[-80.87905,28.48981],[-80.88033,28.49112],[-80.88259,28.49149],[-80.88416,28.49554],[-80.88027,28.49699],[-80.87987,28.50001],[-80.88103,28.50378],[-80.88331,28.50429],[-80.88574,28.51031],[-80.89192,28.51209],[-80.89339,28.51184],[-80.895,28.50985],[-80.89591,28.50944],[-80.89885,28.50978],[-80.90009,28.51155],[-80.90152,28.51042],[-80.90337,28.5111],[-80.90446,28.51044],[-80.90663,28.51161],[-80.90561,28.51276],[-80.90713,28.51378],[-80.90702,28.51471],[-80.90555,28.51603],[-80.90572,28.51781],[-80.90796,28.51799],[-80.90684,28.51996],[-80.90726,28.52054],[-80.91008,28.52191],[-80.91103,28.52127],[-80.91199,28.52162],[-80.91251,28.52317],[-80.91099,28.52291],[-80.91056,28.5233],[-80.91141,28.52457],[-80.91206,28.52473],[-80.91305,28.52382],[-80.91631,28.52277],[-80.91752,28.52298],[-80.92064,28.5252],[-80.92107,28.52881],[-80.92338,28.53273],[-80.92507,28.5332],[-80.92824,28.53271],[-80.93218,28.5355],[-80.93287,28.53382],[-80.93407,28.5334],[-80.93524,28.5341],[-80.93559,28.53631],[-80.93626,28.53678],[-80.93722,28.53642],[-80.9378,28.53469],[-80.93939,28.53512],[-80.93897,28.53945],[-80.93965,28.5407],[-80.93921,28.5418],[-80.93583,28.54176],[-80.93489,28.54056],[-80.93425,28.54047],[-80.93277,28.54133],[-80.93213,28.54236],[-80.93215,28.543],[-80.9343,28.5452],[-80.93415,28.54766],[-80.9334,28.54897],[-80.93339,28.5505],[-80.93263,28.5516],[-80.93367,28.55192],[-80.93325,28.55263],[-80.93419,28.5544],[-80.93383,28.55499],[-80.93174,28.55588],[-80.93168,28.55697],[-80.93427,28.55897],[-80.93165,28.55982],[-80.93218,28.5618],[-80.93035,28.56259],[-80.93004,28.56322],[-80.93052,28.56399],[-80.93194,28.56456],[-80.93188,28.56639],[-80.9331,28.56631],[-80.93282,28.56732],[-80.93407,28.56792],[-80.93441,28.56944],[-80.93575,28.57049],[-80.93588,28.57133],[-80.93746,28.57094],[-80.93824,28.57151],[-80.93828,28.57225],[-80.93935,28.57254],[-80.94034,28.5745],[-80.93928,28.57468],[-80.93906,28.57518],[-80.94027,28.57593],[-80.94044,28.57809],[-80.9415,28.57814],[-80.94168,28.57899],[-80.9426,28.5799],[-80.94425,28.58011],[-80.94395,28.58195],[-80.94449,28.5826],[-80.94586,28.58272],[-80.94476,28.58401],[-80.94716,28.58489],[-80.94632,28.58608],[-80.94709,28.58742],[-80.94638,28.58758],[-80.94544,28.5865],[-80.94556,28.58794],[-80.94507,28.58893],[-80.94426,28.58896],[-80.94473,28.58987],[-80.9438,28.591],[-80.94466,28.59132],[-80.94506,28.59241],[-80.94459,28.59303],[-80.94384,28.59264],[-80.94334,28.59367],[-80.94642,28.59574],[-80.94793,28.59564],[-80.94733,28.59673],[-80.94658,28.59659],[-80.94637,28.59694],[-80.94882,28.59794],[-80.94853,28.59881],[-80.94952,28.59848],[-80.9493,28.60037],[-80.95072,28.59963],[-80.95123,28.60047],[-80.95233,28.60006],[-80.95305,28.60066],[-80.95292,28.60138],[-80.95195,28.60223],[-80.95248,28.60274],[-80.95195,28.60415],[-80.95409,28.60495],[-80.95522,28.60356],[-80.9565,28.60382],[-80.95636,28.60214],[-80.95711,28.6019],[-80.95996,28.60292],[-80.96039,28.60495],[-80.96129,28.60545],[-80.96403,28.6051],[-80.96519,28.60438],[-80.96622,28.60509],[-80.9676,28.6052],[-80.9678,28.6044],[-80.96835,28.6042],[-80.96953,28.60519],[-80.96918,28.60788],[-80.96949,28.60838],[-80.97065,28.60858],[-80.97099,28.61115],[-80.97306,28.61137],[-80.97474,28.60851],[-80.97592,28.60782],[-80.97796,28.60913],[-80.97983,28.60911],[-80.9806,28.60958],[-80.98104,28.61019],[-80.9806,28.61095],[-80.98103,28.61115],[-80.98241,28.61069],[-80.98333,28.6097],[-80.98422,28.61268],[-80.98503,28.61274],[-80.98534,28.61136],[-80.98725,28.613],[-81.15781,28.61223]]]},"properties":{"county":"Orange","county_fips":"12095","pop_2023":1501265,"pop_2024":1533646,"population_change":32381,"growth_rate":0.02157,"births":16531,"deaths":9398,"natural_increase":7133,"international_migration":43378,"domestic_migration":-18097,"net_migration":25281,"under_18":310666}}],"vintage":"Census PEP Vintage 2024 (2023→2024); ACS 2019-2023 under-18","source":"U.S. Census Bureau Population Estimates Program (Vintage 2024) and ACS 5-year","source_url":"https://www2.census.gov/programs-surveys/popest/datasets/2020-2024/counties/totals/co-est2024-alldata.csv","retrieved":"2026-09-06","unit":"annual population growth rate"}
